country_code,country_name,city,postal,latitude,longitude,IPv4,state
CN,China,,,34.7725,113.7266,124.221.183.70,
DE,Germany,,,51.2993,9.491,193.118.53.138,
RU,Russia,Yekaterinburg,623101,56.9053,59.9436,141.101.196.233,Sverdlovskaya Oblast'
RU,Russia,Yekaterinburg,623101,56.9053,59.9436,141.101.196.233,Sverdlovskaya Oblast'
Not found,Not found,Not found,Not found,Not found,Not found,IP Not found,Not found
Not found,Not found,Not found,Not found,Not found,Not found,IP Not found,Not found
TR,Turkey,Istanbul,34110,41.0177,28.9744,85.105.174.227,Istanbul
Not found,Not found,Not found,Not found,Not found,Not found,IP Not found,Not found
US,United States,,,37.751,-97.822,167.248.133.63,
US,United States,,,37.751,-97.822,167.248.133.63,
US,United States,,,37.751,-97.822,167.248.133.63,
Not found,Not found,Not found,Not found,Not found,Not found,IP Not found,Not found
CN,China,Dalian,,38.9122,121.6022,123.185.54.194,Liaoning
US,United States,San Francisco,94124,37.7353,-122.3732,192.241.222.204,California
SG,Singapore,Singapore,,1.2931,103.8558,139.59.235.12,Central Singapore Community Development Council
US,United States,San Francisco,94124,37.7353,-122.3732,192.241.220.158,California
US,United States,San Francisco,94124,37.7353,-122.3732,192.241.220.173,California
US,United States,San Francisco,94124,37.7353,-122.3732,192.241.213.128,California
US,United States,,,37.751,-97.822,64.62.197.212,
US,United States,,,37.751,-97.822,129.80.69.190,
US,United States,,,37.751,-97.822,129.80.69.190,
US,United States,,,37.751,-97.822,129.80.69.190,
US,United States,,,37.751,-97.822,129.80.69.190,
US,United States,,,37.751,-97.822,129.80.69.190,
US,United States,,,37.751,-97.822,129.80.69.190,
US,United States,,,37.751,-97.822,129.80.69.190,
US,United States,,,37.751,-97.822,129.80.69.190,
US,United States,,,37.751,-97.822,129.80.69.190,
US,United States,,,37.751,-97.822,129.80.69.190,
US,United States,,,37.751,-97.822,129.80.69.190,
US,United States,,,37.751,-97.822,129.80.69.190,
CZ,Czechia,Prague,110 00,50.0833,14.4667,78.108.177.52,Hlavni mesto Praha
HK,Hong Kong,Central,,22.2833,114.15,203.218.154.168,Central and Western District
HK,Hong Kong,Central,,22.2833,114.15,203.218.154.168,Central and Western District
US,United States,San Francisco,94124,37.7353,-122.3732,192.241.222.206,California
JP,Japan,Ota,373-0013,36.3,139.3667,124.255.20.149,Gunma
US,United States,Clifton,07014,40.8344,-74.1377,167.99.50.226,New Jersey
US,United States,Clifton,07014,40.8344,-74.1377,167.99.50.226,New Jersey
RU,Russia,,,55.7386,37.6068,213.226.123.30,
US,United States,,,37.751,-97.822,167.94.138.117,
US,United States,,,37.751,-97.822,167.94.138.117,
US,United States,,,37.751,-97.822,167.94.138.117,
RU,Russia,,,55.7386,37.6068,213.226.123.30,
RU,Russia,,,55.7386,37.6068,213.226.123.30,
RU,Russia,,,55.7386,37.6068,213.226.123.30,
RU,Russia,,,55.7386,37.6068,213.226.123.30,
RU,Russia,,,55.7386,37.6068,213.226.123.30,
RU,Russia,,,55.7386,37.6068,213.226.123.30,
RU,Russia,,,55.7386,37.6068,213.226.123.30,
RU,Russia,,,55.7386,37.6068,213.226.123.30,
RU,Russia,,,55.7386,37.6068,213.226.123.30,
US,United States,,,37.751,-97.822,64.62.197.182,
RU,Russia,,,55.7386,37.6068,213.226.123.30,
RU,Russia,,,55.7386,37.6068,213.226.123.30,
RU,Russia,,,55.7386,37.6068,213.226.123.30,
RU,Russia,,,55.7386,37.6068,213.226.123.30,
RU,Russia,,,55.7386,37.6068,213.226.123.30,
SC,Seychelles,,,-4.5833,55.6667,89.248.165.52,
SC,Seychelles,,,-4.5833,55.6667,89.248.165.52,
SC,Seychelles,,,-4.5833,55.6667,89.248.165.52,
SC,Seychelles,,,-4.5833,55.6667,89.248.165.52,
SC,Seychelles,,,-4.5833,55.6667,89.248.165.52,
SC,Seychelles,,,-4.5833,55.6667,89.248.165.52,
SC,Seychelles,,,-4.5833,55.6667,89.248.165.52,
US,United States,,,37.751,-97.822,157.245.210.201,
US,United States,San Diego,92123,32.7973,-117.1392,71.6.232.8,California
Not found,Not found,Not found,Not found,Not found,Not found,IP Not found,Not found
Not found,Not found,Not found,Not found,Not found,Not found,IP Not found,Not found
US,United States,San Francisco,94124,37.7353,-122.3732,192.241.219.123,California
,,,,47,8,46.174.191.30,
US,United States,,,37.751,-97.822,104.152.52.109,
IR,Iran,,,35.6961,51.4231,5.234.62.169,
DE,Germany,,,51.2993,9.491,193.118.53.202,
IN,India,Akbarpur,209101,26.3833,79.95,103.93.177.43,Uttar Pradesh
US,United States,San Francisco,94124,37.7353,-122.3732,192.241.213.192,California
TH,Thailand,,,13.75,100.4667,61.7.141.142,
US,United States,Los Angeles,90012,34.0729,-118.2606,162.221.192.26,California
KR,South Korea,,,37.5112,126.97409999999999,1.236.16.124,
DE,Germany,,,51.2993,9.491,193.118.53.210,
CZ,Czechia,Prague,110 00,50.0833,14.4667,78.108.177.52,Hlavni mesto Praha
GR,Greece,Athens,,37.9833,23.7333,79.167.214.73,Attica
BR,Brazil,Sao Jose do Rio Preto,15000,-20.7691,-49.356700000000004,177.66.233.104,Sao Paulo
US,United States,,,37.751,-97.822,167.94.138.62,
US,United States,,,37.751,-97.822,167.94.138.62,
US,United States,,,37.751,-97.822,167.94.138.62,
Not found,Not found,Not found,Not found,Not found,Not found,IP Not found,Not found
SG,Singapore,Singapore,,1.2931,103.8558,139.59.235.12,Central Singapore Community Development Council
US,United States,San Francisco,94124,37.7353,-122.3732,192.241.221.78,California
IN,India,Amritsar,143002,31.6331,74.8656,202.14.123.113,Punjab
US,United States,Los Angeles,90012,34.0729,-118.2606,128.1.248.26,California
US,United States,,,37.751,-97.822,216.218.206.68,
IN,India,Hyderabad,500025,17.3753,78.4744,183.82.111.59,Telangana
MY,Malaysia,Kuala Lumpur,55000,3.1532,101.7252,210.195.97.84,Kuala Lumpur
IR,Iran,,,35.6961,51.4231,31.57.42.227,
CN,China,,,31.0456,121.3997,106.75.227.154,Shanghai
,,,,47,8,46.174.191.30,
FR,France,Bouloc,31620,43.7816,1.4052,78.202.128.101,Upper Garonne
TR,Turkey,Alanya,07400,36.5437,31.9998,88.225.235.140,Antalya
MY,Malaysia,Kuala Lumpur,55000,3.1532,101.7252,210.195.97.84,Kuala Lumpur
MY,Malaysia,Kuala Lumpur,55000,3.1532,101.7252,210.195.97.84,Kuala Lumpur
CN,China,,,28.1792,113.1136,223.155.98.171,Hunan
MY,Malaysia,Kuala Lumpur,55000,3.1532,101.7252,210.195.97.84,Kuala Lumpur
MY,Malaysia,Kuala Lumpur,55000,3.1532,101.7252,210.195.97.84,Kuala Lumpur
RU,Russia,,,55.7386,37.6068,85.119.151.250,
RU,Russia,,,55.7386,37.6068,85.119.151.250,
RU,Russia,,,55.7386,37.6068,85.119.151.250,
RU,Russia,Totskoye,461131,52.5333,52.75,95.71.131.232,Orenburg Oblast
Not found,Not found,Not found,Not found,Not found,Not found,IP Not found,Not found
US,United States,,,37.751,-97.822,216.218.206.68,
RU,Russia,Moscow,102292,55.7522,37.6156,5.188.210.227,Moscow
IR,Iran,Dezful,,32.3825,48.402,91.106.65.208,Khuzestan
Not found,Not found,Not found,Not found,Not found,Not found,IP Not found,Not found
Not found,Not found,Not found,Not found,Not found,Not found,IP Not found,Not found
CN,China,,,39.9289,116.3883,103.203.57.9,Beijing
CZ,Czechia,Prague,110 00,50.0833,14.4667,78.108.177.53,Hlavni mesto Praha
Not found,Not found,Not found,Not found,Not found,Not found,IP Not found,Not found
Not found,Not found,Not found,Not found,Not found,Not found,IP Not found,Not found
RU,Russia,Yekaterinburg,623101,56.9053,59.9436,141.101.196.233,Sverdlovskaya Oblast'
RU,Russia,Yekaterinburg,623101,56.9053,59.9436,141.101.196.233,Sverdlovskaya Oblast'
AL,Albania,,,41,20,84.20.89.86,
BG,Bulgaria,,,42.7,23.3333,91.191.209.206,
US,United States,Los Angeles,90014,34.0494,-118.2641,104.129.5.168,California
US,United States,,,37.751,-97.822,38.242.205.34,
US,United States,,,37.751,-97.822,38.242.205.34,
US,United States,Los Angeles,90012,34.0729,-118.2606,128.14.134.134,California
BZ,Belize,,,17.25,-88.75,45.227.254.48,
BZ,Belize,,,17.25,-88.75,45.227.254.48,
Not found,Not found,Not found,Not found,Not found,Not found,IP Not found,Not found
KR,South Korea,,,37.5112,126.97409999999999,1.236.16.124,
ES,Spain,San Sebastián de los Reyes,28703,40.5443,-3.6159,146.255.185.134,Madrid
Not found,Not found,Not found,Not found,Not found,Not found,IP Not found,Not found
BR,Brazil,Cascavel,62850,-4.27,-38.2738,168.232.12.98,Ceara
,,,,47,8,46.174.191.32,
RU,Russia,Moscow,102292,55.7522,37.6156,193.124.7.9,Moscow
UA,Ukraine,Chernivtsi,58022,48.2915,25.9403,91.236.226.24,Chernivtsi Oblast'
NL,Netherlands,Amsterdam,1098,52.3529,4.9415,188.166.87.67,North Holland
CZ,Czechia,Prague,110 00,50.0833,14.4667,78.108.177.54,Hlavni mesto Praha
RU,Russia,,,55.7386,37.6068,85.119.151.250,
RU,Russia,,,55.7386,37.6068,85.119.151.250,
RU,Russia,,,55.7386,37.6068,85.119.151.250,
US,United States,Layton,84041,41.0879,-111.9704,184.105.247.195,Utah
SG,Singapore,Singapore,,1.2931,103.8558,139.59.235.12,Central Singapore Community Development Council
IN,India,Ludhiana,141001,30.9,75.85,103.41.36.44,Punjab
IN,India,Amritsar,143002,31.6331,74.8656,103.40.197.67,Punjab
US,United States,Los Angeles,90012,34.0729,-118.2606,128.14.209.162,California
Not found,Not found,Not found,Not found,Not found,Not found,IP Not found,Not found
US,United States,Las Vegas,89169,36.1234,-115.1429,104.206.128.6,Nevada
PL,Poland,,,52.2394,21.0362,193.107.216.102,
PL,Poland,,,52.2394,21.0362,193.107.216.102,
PL,Poland,,,52.2394,21.0362,193.107.216.102,
Not found,Not found,Not found,Not found,Not found,Not found,IP Not found,Not found
US,United States,,,37.751,-97.822,165.232.92.72,
US,United States,,,37.751,-97.822,165.232.92.72,
US,United States,Castro Valley,94546,37.7015,-122.0782,23.90.160.130,California
BR,Brazil,São Paulo,01000,-23.627,-46.635,186.220.224.41,Sao Paulo
IN,India,Allahabad,211001,25.45,81.85,103.78.12.24,Uttar Pradesh
BR,Brazil,Padre Bernardo,73700,-15.3412,-48.3137,138.118.103.25,Goias
CZ,Czechia,Prague,110 00,50.0833,14.4667,78.108.177.50,Hlavni mesto Praha
US,United States,Los Angeles,90014,34.0494,-118.2641,23.224.186.37,California
US,United States,Los Angeles,90014,34.0494,-118.2641,23.224.186.37,California
US,United States,Los Angeles,90014,34.0494,-118.2641,23.224.186.37,California
US,United States,Los Angeles,90014,34.0494,-118.2641,23.224.186.37,California
US,United States,Los Angeles,90014,34.0494,-118.2641,23.224.186.37,California
US,United States,Layton,84041,41.0879,-111.9704,184.105.247.254,Utah
RU,Russia,Moscow,102292,55.7522,37.6156,193.124.7.9,Moscow
US,United States,,,37.751,-97.822,45.43.14.94,
US,United States,Cheyenne,82001,41.1034,-104.9059,45.61.185.106,Wyoming
JP,Japan,,,35.69,139.69,43.130.57.239,
CA,Canada,,,43.6319,-79.3716,198.235.24.139,
US,United States,,,37.751,-97.822,35.87.93.144,
RU,Russia,,,55.7386,37.6068,85.119.151.250,
RU,Russia,,,55.7386,37.6068,85.119.151.250,
RU,Russia,,,55.7386,37.6068,85.119.151.250,
CN,China,,,31.0456,121.3997,106.75.246.50,Shanghai
CN,China,,,31.0456,121.3997,106.75.26.68,Shanghai
CN,China,,,31.0456,121.3997,106.75.26.68,Shanghai
CN,China,,,30.2936,120.1614,183.136.225.9,Zhejiang
CN,China,,,30.2936,120.1614,183.136.225.9,Zhejiang
CN,China,,,30.2936,120.1614,183.136.225.9,Zhejiang
CN,China,,,30.2936,120.1614,183.136.225.9,Zhejiang
CA,Canada,,,43.6319,-79.3716,198.235.24.132,
CN,China,,,39.9289,116.3883,103.203.57.9,Beijing
RU,Russia,,,55.7386,37.6068,213.226.123.30,
RU,Russia,,,55.7386,37.6068,213.226.123.30,
RU,Russia,,,55.7386,37.6068,213.226.123.30,
MC,Monaco,Monaco,,43.7314,7.419,194.165.16.10,
MC,Monaco,Monaco,,43.7314,7.419,194.165.16.10,
RU,Russia,,,55.7386,37.6068,213.226.123.30,
MC,Monaco,Monaco,,43.7314,7.419,194.165.17.12,
MC,Monaco,Monaco,,43.7314,7.419,194.165.17.12,
MC,Monaco,Monaco,,43.7314,7.419,194.165.17.12,
MC,Monaco,Monaco,,43.7314,7.419,194.165.17.12,
KR,South Korea,,,37.5112,126.97409999999999,1.236.16.124,
US,United States,,,37.751,-97.822,64.62.197.152,
Not found,Not found,Not found,Not found,Not found,Not found,IP Not found,Not found
Not found,Not found,Not found,Not found,Not found,Not found,IP Not found,Not found
Not found,Not found,Not found,Not found,Not found,Not found,IP Not found,Not found
CN,China,Changzhou,,31.7736,119.954,180.116.138.1,Jiangsu
Not found,Not found,Not found,Not found,Not found,Not found,IP Not found,Not found
Not found,Not found,Not found,Not found,Not found,Not found,IP Not found,Not found
Not found,Not found,Not found,Not found,Not found,Not found,IP Not found,Not found
Not found,Not found,Not found,Not found,Not found,Not found,IP Not found,Not found
Not found,Not found,Not found,Not found,Not found,Not found,IP Not found,Not found
Not found,Not found,Not found,Not found,Not found,Not found,IP Not found,Not found
Not found,Not found,Not found,Not found,Not found,Not found,IP Not found,Not found
DE,Germany,,,51.2993,9.491,193.118.53.210,
US,United States,Layton,84041,41.0879,-111.9704,184.105.247.254,Utah
SG,Singapore,Singapore,,1.2931,103.8558,139.59.235.12,Central Singapore Community Development Council
Not found,Not found,Not found,Not found,Not found,Not found,IP Not found,Not found
RU,Russia,Ryazan,390035,54.6197,39.74,178.255.126.198,Ryazan Oblast
CZ,Czechia,Prague,110 00,50.0833,14.4667,78.108.177.52,Hlavni mesto Praha
SE,Sweden,Alvsjo,125 33,59.2793,18.0111,80.216.144.111,Stockholm
US,United States,,,37.751,-97.822,143.198.16.169,
US,United States,San Francisco,94124,37.7353,-122.3732,192.241.211.201,California
BR,Brazil,Lajedo do Tabocal,45365,-13.4742,-40.2239,192.141.57.254,Bahia
ES,Spain,San Sebastián de los Reyes,28703,40.5443,-3.6159,146.255.185.134,Madrid
US,United States,,,37.751,-97.822,167.71.68.203,
US,United States,Los Angeles,90012,34.0729,-118.2606,23.251.102.74,California
CO,Colombia,,,4.5981,-74.0758,201.184.16.242,
,,,,,,163.123.142.219,
RU,Russia,Moscow,102292,55.7522,37.6156,193.124.7.9,Moscow
RU,Russia,Yekaterinburg,623101,56.9053,59.9436,141.101.196.233,Sverdlovskaya Oblast'
RU,Russia,Moscow,102292,55.7522,37.6156,193.124.7.9,Moscow
US,United States,,,37.751,-97.822,167.94.138.60,
US,United States,,,37.751,-97.822,167.94.138.60,
US,United States,,,37.751,-97.822,167.94.138.60,
Not found,Not found,Not found,Not found,Not found,Not found,IP Not found,Not found
LV,Latvia,,,57,25,188.92.77.15,
Not found,Not found,Not found,Not found,Not found,Not found,IP Not found,Not found
US,United States,,,37.751,-97.822,143.198.136.88,
US,United States,,,37.751,-97.822,143.198.136.88,
US,United States,,,37.751,-97.822,143.198.136.88,
,,,,47,8,46.174.191.31,
Not found,Not found,Not found,Not found,Not found,Not found,IP Not found,Not found
Not found,Not found,Not found,Not found,Not found,Not found,IP Not found,Not found
US,United States,San Francisco,94124,37.7353,-122.3732,192.241.211.245,California
TW,Taiwan,Taipei,,25.0478,121.5318,61.219.11.152,Taipei City
HU,Hungary,Budapest,1202,47.5,19.0833,77.234.70.64,Budapest
RU,Russia,Yekaterinburg,623101,56.9053,59.9436,141.101.196.233,Sverdlovskaya Oblast'
KR,South Korea,,,37.5112,126.97409999999999,1.236.16.124,
,,,,47,8,46.174.191.28,
IN,India,Bahadurgarh,124507,28.6833,76.9167,117.192.220.59,Haryana
RU,Russia,,,55.7386,37.6068,213.226.123.30,
RU,Russia,Yekaterinburg,623101,56.9053,59.9436,141.101.196.233,Sverdlovskaya Oblast'
RU,Russia,Yekaterinburg,623101,56.9053,59.9436,141.101.196.233,Sverdlovskaya Oblast'
RU,Russia,,,55.7386,37.6068,213.226.123.30,
US,United States,,,37.751,-97.822,167.94.138.46,
US,United States,,,37.751,-97.822,167.94.138.46,
US,United States,,,37.751,-97.822,167.94.138.46,
US,United States,,,37.751,-97.822,162.142.125.10,
US,United States,,,37.751,-97.822,162.142.125.10,
US,United States,,,37.751,-97.822,162.142.125.10,
RU,Russia,,,55.7386,37.6068,213.226.123.30,
GB,United Kingdom,,,51.4964,-0.1224,167.172.69.102,
GB,United Kingdom,,,51.4964,-0.1224,167.172.69.102,
Not found,Not found,Not found,Not found,Not found,Not found,IP Not found,Not found
GB,United Kingdom,,,51.4964,-0.1224,167.172.69.102,
GB,United Kingdom,,,51.4964,-0.1224,167.172.69.102,
Not found,Not found,Not found,Not found,Not found,Not found,IP Not found,Not found
GB,United Kingdom,,,51.4964,-0.1224,167.172.69.102,
GB,United Kingdom,,,51.4964,-0.1224,167.172.69.102,
Not found,Not found,Not found,Not found,Not found,Not found,IP Not found,Not found
GB,United Kingdom,,,51.4964,-0.1224,167.172.69.102,
GB,United Kingdom,,,51.4964,-0.1224,167.172.69.102,
US,United States,San Francisco,94124,37.7353,-122.3732,192.241.220.153,California
RU,Russia,,,55.7386,37.6068,213.226.123.30,
US,United States,Sioux Falls,57104,43.5514,-96.7375,181.214.206.161,South Dakota
RU,Russia,,,55.7386,37.6068,213.226.123.30,
US,United States,San Francisco,94124,37.7353,-122.3732,192.241.223.39,California
BR,Brazil,Erval d'Oeste,89610,-27.2041,-51.4203,177.131.121.43,Santa Catarina
ES,Spain,San Sebastián de los Reyes,28703,40.5443,-3.6159,146.255.185.154,Madrid
RU,Russia,,,55.7386,37.6068,213.226.123.30,
SG,Singapore,Singapore,,1.2931,103.8558,139.59.235.12,Central Singapore Community Development Council
RU,Russia,,,55.7386,37.6068,213.226.123.30,
US,United States,San Francisco,94124,37.7353,-122.3732,192.241.219.186,California
RU,Russia,,,55.7386,37.6068,213.226.123.30,
RU,Russia,,,55.7386,37.6068,213.226.123.30,
US,United States,,,37.751,-97.822,35.88.194.143,
RU,Russia,,,55.7386,37.6068,213.226.123.30,
US,United States,San Francisco,94124,37.7353,-122.3732,192.241.220.10,California
RU,Russia,,,55.7386,37.6068,213.226.123.30,
SK,Slovakia,,,48.6667,19.5,185.180.143.135,
CZ,Czechia,Prague,110 00,50.0833,14.4667,78.108.177.50,Hlavni mesto Praha
US,United States,Castro Valley,94546,37.7015,-122.0782,23.90.160.122,California
US,United States,San Francisco,94124,37.7353,-122.3732,192.241.214.170,California
US,United States,Cheyenne,82001,41.1034,-104.9059,45.61.188.28,Wyoming
Not found,Not found,Not found,Not found,Not found,Not found,IP Not found,Not found
Not found,Not found,Not found,Not found,Not found,Not found,IP Not found,Not found
US,United States,,,37.751,-97.822,64.62.197.2,
US,United States,Cheyenne,82001,41.1034,-104.9059,45.61.186.19,Wyoming
US,United States,,,37.751,-97.822,64.62.197.182,
KR,South Korea,,,37.5112,126.97409999999999,1.236.16.124,
CA,Canada,Toronto,M8W,43.6021,-79.5402,64.227.177.168,Ontario
CA,Canada,Toronto,M8W,43.6021,-79.5402,64.227.177.168,Ontario
Not found,Not found,Not found,Not found,Not found,Not found,IP Not found,Not found
CA,Canada,Toronto,M8W,43.6021,-79.5402,64.227.177.168,Ontario
CA,Canada,Toronto,M8W,43.6021,-79.5402,64.227.177.168,Ontario
Not found,Not found,Not found,Not found,Not found,Not found,IP Not found,Not found
CA,Canada,Toronto,M8W,43.6021,-79.5402,64.227.177.168,Ontario
CA,Canada,Toronto,M8W,43.6021,-79.5402,64.227.177.168,Ontario
Not found,Not found,Not found,Not found,Not found,Not found,IP Not found,Not found
CA,Canada,Toronto,M8W,43.6021,-79.5402,64.227.177.168,Ontario
CA,Canada,Toronto,M8W,43.6021,-79.5402,64.227.177.168,Ontario
US,United States,Los Angeles,90012,34.0729,-118.2606,23.251.102.74,California
US,United States,,,37.751,-97.822,74.82.47.2,
Not found,Not found,Not found,Not found,Not found,Not found,IP Not found,Not found
Not found,Not found,Not found,Not found,Not found,Not found,IP Not found,Not found
RU,Russia,,,55.7386,37.6068,95.181.161.236,
Not found,Not found,Not found,Not found,Not found,Not found,IP Not found,Not found
Not found,Not found,Not found,Not found,Not found,Not found,IP Not found,Not found
PK,Pakistan,Attock,43560,33.8928,72.2407,175.107.4.174,Punjab
Not found,Not found,Not found,Not found,Not found,Not found,IP Not found,Not found
Not found,Not found,Not found,Not found,Not found,Not found,IP Not found,Not found
Not found,Not found,Not found,Not found,Not found,Not found,IP Not found,Not found
Not found,Not found,Not found,Not found,Not found,Not found,IP Not found,Not found
Not found,Not found,Not found,Not found,Not found,Not found,IP Not found,Not found
US,United States,Layton,84041,41.0879,-111.9704,184.105.247.195,Utah
Not found,Not found,Not found,Not found,Not found,Not found,IP Not found,Not found
Not found,Not found,Not found,Not found,Not found,Not found,IP Not found,Not found
Not found,Not found,Not found,Not found,Not found,Not found,IP Not found,Not found
US,United States,San Francisco,94124,37.7353,-122.3732,192.241.225.221,California
Not found,Not found,Not found,Not found,Not found,Not found,IP Not found,Not found
Not found,Not found,Not found,Not found,Not found,Not found,IP Not found,Not found
MC,Monaco,Monaco,,43.7314,7.419,194.165.16.72,
MC,Monaco,Monaco,,43.7314,7.419,194.165.16.72,
US,United States,San Francisco,94124,37.7353,-122.3732,192.241.226.79,California
SG,Singapore,Singapore,,1.2931,103.8558,139.59.235.12,Central Singapore Community Development Council
SC,Seychelles,,,-4.5833,55.6667,89.248.165.24,
Not found,Not found,Not found,Not found,Not found,Not found,IP Not found,Not found
US,United States,Los Angeles,90012,34.0729,-118.2606,128.14.209.162,California
US,United States,San Francisco,94124,37.7353,-122.3732,192.241.213.251,California
RU,Russia,,,55.7386,37.6068,109.248.6.113,
TH,Thailand,Bangkok,10600,13.7333,100.4833,125.25.105.166,Bangkok
SC,Seychelles,,,-4.5833,55.6667,80.82.78.44,
SC,Seychelles,,,-4.5833,55.6667,80.82.78.44,
SC,Seychelles,,,-4.5833,55.6667,80.82.78.44,
SC,Seychelles,,,-4.5833,55.6667,80.82.78.44,
SC,Seychelles,,,-4.5833,55.6667,80.82.78.44,
SC,Seychelles,,,-4.5833,55.6667,80.82.78.44,
SC,Seychelles,,,-4.5833,55.6667,80.82.78.44,
SC,Seychelles,,,-4.5833,55.6667,80.82.78.44,
SC,Seychelles,,,-4.5833,55.6667,80.82.78.44,
SC,Seychelles,,,-4.5833,55.6667,80.82.78.44,
SC,Seychelles,,,-4.5833,55.6667,80.82.78.44,
SC,Seychelles,,,-4.5833,55.6667,80.82.78.44,
SC,Seychelles,,,-4.5833,55.6667,80.82.78.44,
SC,Seychelles,,,-4.5833,55.6667,80.82.78.44,
SC,Seychelles,,,-4.5833,55.6667,80.82.78.44,
SC,Seychelles,,,-4.5833,55.6667,80.82.78.44,
SC,Seychelles,,,-4.5833,55.6667,80.82.78.44,
SC,Seychelles,,,-4.5833,55.6667,80.82.78.44,
SC,Seychelles,,,-4.5833,55.6667,80.82.78.44,
SC,Seychelles,,,-4.5833,55.6667,80.82.78.44,
SC,Seychelles,,,-4.5833,55.6667,80.82.78.44,
SC,Seychelles,,,-4.5833,55.6667,80.82.78.44,
SC,Seychelles,,,-4.5833,55.6667,80.82.78.44,
SC,Seychelles,,,-4.5833,55.6667,80.82.78.44,
SC,Seychelles,,,-4.5833,55.6667,80.82.78.44,
SC,Seychelles,,,-4.5833,55.6667,80.82.78.44,
SC,Seychelles,,,-4.5833,55.6667,80.82.78.44,
SC,Seychelles,,,-4.5833,55.6667,80.82.78.44,
SC,Seychelles,,,-4.5833,55.6667,80.82.78.44,
SC,Seychelles,,,-4.5833,55.6667,80.82.78.44,
SC,Seychelles,,,-4.5833,55.6667,80.82.78.44,
SC,Seychelles,,,-4.5833,55.6667,80.82.78.44,
SC,Seychelles,,,-4.5833,55.6667,80.82.78.44,
SC,Seychelles,,,-4.5833,55.6667,80.82.78.44,
SC,Seychelles,,,-4.5833,55.6667,80.82.78.44,
SC,Seychelles,,,-4.5833,55.6667,80.82.78.44,
SC,Seychelles,,,-4.5833,55.6667,80.82.78.44,
SC,Seychelles,,,-4.5833,55.6667,80.82.78.44,
SC,Seychelles,,,-4.5833,55.6667,80.82.78.44,
SC,Seychelles,,,-4.5833,55.6667,80.82.78.44,
SC,Seychelles,,,-4.5833,55.6667,80.82.78.44,
SC,Seychelles,,,-4.5833,55.6667,80.82.78.44,
SC,Seychelles,,,-4.5833,55.6667,80.82.78.44,
SC,Seychelles,,,-4.5833,55.6667,80.82.78.44,
SC,Seychelles,,,-4.5833,55.6667,80.82.78.44,
SC,Seychelles,,,-4.5833,55.6667,80.82.78.44,
SC,Seychelles,,,-4.5833,55.6667,80.82.78.44,
SC,Seychelles,,,-4.5833,55.6667,80.82.78.44,
SC,Seychelles,,,-4.5833,55.6667,80.82.78.44,
SC,Seychelles,,,-4.5833,55.6667,80.82.78.44,
SC,Seychelles,,,-4.5833,55.6667,80.82.78.44,
SC,Seychelles,,,-4.5833,55.6667,80.82.78.44,
SC,Seychelles,,,-4.5833,55.6667,80.82.78.44,
SC,Seychelles,,,-4.5833,55.6667,80.82.78.44,
SC,Seychelles,,,-4.5833,55.6667,80.82.78.44,
SC,Seychelles,,,-4.5833,55.6667,80.82.78.44,
SC,Seychelles,,,-4.5833,55.6667,80.82.78.44,
SC,Seychelles,,,-4.5833,55.6667,80.82.78.44,
SC,Seychelles,,,-4.5833,55.6667,80.82.78.44,
SC,Seychelles,,,-4.5833,55.6667,80.82.78.44,
SC,Seychelles,,,-4.5833,55.6667,80.82.78.44,
SC,Seychelles,,,-4.5833,55.6667,80.82.78.44,
SC,Seychelles,,,-4.5833,55.6667,80.82.78.44,
SC,Seychelles,,,-4.5833,55.6667,80.82.78.44,
SC,Seychelles,,,-4.5833,55.6667,80.82.78.44,
SC,Seychelles,,,-4.5833,55.6667,80.82.78.44,
SC,Seychelles,,,-4.5833,55.6667,80.82.78.44,
SC,Seychelles,,,-4.5833,55.6667,80.82.78.44,
SC,Seychelles,,,-4.5833,55.6667,80.82.78.44,
SC,Seychelles,,,-4.5833,55.6667,80.82.78.44,
SC,Seychelles,,,-4.5833,55.6667,80.82.78.44,
SC,Seychelles,,,-4.5833,55.6667,80.82.78.44,
SC,Seychelles,,,-4.5833,55.6667,80.82.78.44,
SC,Seychelles,,,-4.5833,55.6667,80.82.78.44,
SC,Seychelles,,,-4.5833,55.6667,80.82.78.44,
SC,Seychelles,,,-4.5833,55.6667,80.82.78.44,
SC,Seychelles,,,-4.5833,55.6667,80.82.78.44,
SC,Seychelles,,,-4.5833,55.6667,80.82.78.44,
SC,Seychelles,,,-4.5833,55.6667,80.82.78.44,
SC,Seychelles,,,-4.5833,55.6667,80.82.78.44,
SC,Seychelles,,,-4.5833,55.6667,80.82.78.44,
SC,Seychelles,,,-4.5833,55.6667,80.82.78.44,
SC,Seychelles,,,-4.5833,55.6667,80.82.78.44,
SC,Seychelles,,,-4.5833,55.6667,80.82.78.44,
SC,Seychelles,,,-4.5833,55.6667,80.82.78.44,
SC,Seychelles,,,-4.5833,55.6667,80.82.78.44,
SC,Seychelles,,,-4.5833,55.6667,80.82.78.44,
SC,Seychelles,,,-4.5833,55.6667,80.82.78.44,
SC,Seychelles,,,-4.5833,55.6667,80.82.78.44,
SC,Seychelles,,,-4.5833,55.6667,80.82.78.44,
SC,Seychelles,,,-4.5833,55.6667,80.82.78.44,
SC,Seychelles,,,-4.5833,55.6667,80.82.78.44,
SC,Seychelles,,,-4.5833,55.6667,80.82.78.44,
SC,Seychelles,,,-4.5833,55.6667,80.82.78.44,
SC,Seychelles,,,-4.5833,55.6667,80.82.78.44,
SC,Seychelles,,,-4.5833,55.6667,80.82.78.44,
SC,Seychelles,,,-4.5833,55.6667,80.82.78.44,
SC,Seychelles,,,-4.5833,55.6667,80.82.78.44,
SC,Seychelles,,,-4.5833,55.6667,80.82.78.44,
SC,Seychelles,,,-4.5833,55.6667,80.82.78.44,
SC,Seychelles,,,-4.5833,55.6667,80.82.78.44,
SC,Seychelles,,,-4.5833,55.6667,80.82.78.44,
SC,Seychelles,,,-4.5833,55.6667,80.82.78.44,
SC,Seychelles,,,-4.5833,55.6667,80.82.78.44,
SC,Seychelles,,,-4.5833,55.6667,80.82.78.44,
SC,Seychelles,,,-4.5833,55.6667,80.82.78.44,
SC,Seychelles,,,-4.5833,55.6667,80.82.78.44,
SC,Seychelles,,,-4.5833,55.6667,80.82.78.44,
SC,Seychelles,,,-4.5833,55.6667,80.82.78.44,
SC,Seychelles,,,-4.5833,55.6667,80.82.78.44,
SC,Seychelles,,,-4.5833,55.6667,80.82.78.44,
SC,Seychelles,,,-4.5833,55.6667,80.82.78.44,
SC,Seychelles,,,-4.5833,55.6667,80.82.78.44,
SC,Seychelles,,,-4.5833,55.6667,80.82.78.44,
SC,Seychelles,,,-4.5833,55.6667,80.82.78.44,
SC,Seychelles,,,-4.5833,55.6667,80.82.78.44,
SC,Seychelles,,,-4.5833,55.6667,80.82.78.44,
SC,Seychelles,,,-4.5833,55.6667,80.82.78.44,
SC,Seychelles,,,-4.5833,55.6667,80.82.78.44,
SC,Seychelles,,,-4.5833,55.6667,80.82.78.44,
SC,Seychelles,,,-4.5833,55.6667,80.82.78.44,
SC,Seychelles,,,-4.5833,55.6667,80.82.78.44,
SC,Seychelles,,,-4.5833,55.6667,80.82.78.44,
SC,Seychelles,,,-4.5833,55.6667,80.82.78.44,
SC,Seychelles,,,-4.5833,55.6667,80.82.78.44,
SC,Seychelles,,,-4.5833,55.6667,80.82.78.44,
SC,Seychelles,,,-4.5833,55.6667,80.82.78.44,
SC,Seychelles,,,-4.5833,55.6667,80.82.78.44,
SC,Seychelles,,,-4.5833,55.6667,80.82.78.44,
SC,Seychelles,,,-4.5833,55.6667,80.82.78.44,
SC,Seychelles,,,-4.5833,55.6667,80.82.78.44,
SC,Seychelles,,,-4.5833,55.6667,80.82.78.44,
SC,Seychelles,,,-4.5833,55.6667,80.82.78.44,
SC,Seychelles,,,-4.5833,55.6667,80.82.78.44,
SC,Seychelles,,,-4.5833,55.6667,80.82.78.44,
SC,Seychelles,,,-4.5833,55.6667,80.82.78.44,
SC,Seychelles,,,-4.5833,55.6667,80.82.78.44,
SC,Seychelles,,,-4.5833,55.6667,80.82.78.44,
SC,Seychelles,,,-4.5833,55.6667,80.82.78.44,
SC,Seychelles,,,-4.5833,55.6667,80.82.78.44,
SC,Seychelles,,,-4.5833,55.6667,80.82.78.44,
SC,Seychelles,,,-4.5833,55.6667,80.82.78.44,
SC,Seychelles,,,-4.5833,55.6667,80.82.78.44,
SC,Seychelles,,,-4.5833,55.6667,80.82.78.44,
SC,Seychelles,,,-4.5833,55.6667,80.82.78.44,
SC,Seychelles,,,-4.5833,55.6667,80.82.78.44,
SC,Seychelles,,,-4.5833,55.6667,80.82.78.44,
SC,Seychelles,,,-4.5833,55.6667,80.82.78.44,
SC,Seychelles,,,-4.5833,55.6667,80.82.78.44,
SC,Seychelles,,,-4.5833,55.6667,80.82.78.44,
SC,Seychelles,,,-4.5833,55.6667,80.82.78.44,
SC,Seychelles,,,-4.5833,55.6667,80.82.78.44,
SC,Seychelles,,,-4.5833,55.6667,80.82.78.44,
SC,Seychelles,,,-4.5833,55.6667,80.82.78.44,
SC,Seychelles,,,-4.5833,55.6667,80.82.78.44,
SC,Seychelles,,,-4.5833,55.6667,80.82.78.44,
SC,Seychelles,,,-4.5833,55.6667,80.82.78.44,
SC,Seychelles,,,-4.5833,55.6667,80.82.78.44,
SC,Seychelles,,,-4.5833,55.6667,80.82.78.44,
SC,Seychelles,,,-4.5833,55.6667,80.82.78.44,
SC,Seychelles,,,-4.5833,55.6667,80.82.78.44,
SC,Seychelles,,,-4.5833,55.6667,80.82.78.44,
SC,Seychelles,,,-4.5833,55.6667,80.82.78.44,
SC,Seychelles,,,-4.5833,55.6667,80.82.78.44,
SC,Seychelles,,,-4.5833,55.6667,80.82.78.44,
SC,Seychelles,,,-4.5833,55.6667,80.82.78.44,
SC,Seychelles,,,-4.5833,55.6667,80.82.78.44,
SC,Seychelles,,,-4.5833,55.6667,80.82.78.44,
SC,Seychelles,,,-4.5833,55.6667,80.82.78.44,
SC,Seychelles,,,-4.5833,55.6667,80.82.78.44,
SC,Seychelles,,,-4.5833,55.6667,80.82.78.44,
SC,Seychelles,,,-4.5833,55.6667,80.82.78.44,
SC,Seychelles,,,-4.5833,55.6667,80.82.78.44,
SC,Seychelles,,,-4.5833,55.6667,80.82.78.44,
SC,Seychelles,,,-4.5833,55.6667,80.82.78.44,
SC,Seychelles,,,-4.5833,55.6667,80.82.78.44,
SC,Seychelles,,,-4.5833,55.6667,80.82.78.44,
SC,Seychelles,,,-4.5833,55.6667,80.82.78.44,
SC,Seychelles,,,-4.5833,55.6667,80.82.78.44,
SC,Seychelles,,,-4.5833,55.6667,80.82.78.44,
SC,Seychelles,,,-4.5833,55.6667,80.82.78.44,
SC,Seychelles,,,-4.5833,55.6667,80.82.78.44,
SC,Seychelles,,,-4.5833,55.6667,80.82.78.44,
SC,Seychelles,,,-4.5833,55.6667,80.82.78.44,
SC,Seychelles,,,-4.5833,55.6667,80.82.78.44,
SC,Seychelles,,,-4.5833,55.6667,80.82.78.44,
SC,Seychelles,,,-4.5833,55.6667,80.82.78.44,
SC,Seychelles,,,-4.5833,55.6667,80.82.78.44,
SC,Seychelles,,,-4.5833,55.6667,80.82.78.44,
SC,Seychelles,,,-4.5833,55.6667,80.82.78.44,
SC,Seychelles,,,-4.5833,55.6667,80.82.78.44,
SC,Seychelles,,,-4.5833,55.6667,80.82.78.44,
SC,Seychelles,,,-4.5833,55.6667,80.82.78.44,
SC,Seychelles,,,-4.5833,55.6667,80.82.78.44,
SC,Seychelles,,,-4.5833,55.6667,80.82.78.44,
SC,Seychelles,,,-4.5833,55.6667,80.82.78.44,
SC,Seychelles,,,-4.5833,55.6667,80.82.78.44,
SC,Seychelles,,,-4.5833,55.6667,80.82.78.44,
SC,Seychelles,,,-4.5833,55.6667,80.82.78.44,
SC,Seychelles,,,-4.5833,55.6667,80.82.78.44,
SC,Seychelles,,,-4.5833,55.6667,80.82.78.44,
SC,Seychelles,,,-4.5833,55.6667,80.82.78.44,
SC,Seychelles,,,-4.5833,55.6667,80.82.78.44,
SC,Seychelles,,,-4.5833,55.6667,80.82.78.44,
SC,Seychelles,,,-4.5833,55.6667,80.82.78.44,
SC,Seychelles,,,-4.5833,55.6667,80.82.78.44,
SC,Seychelles,,,-4.5833,55.6667,80.82.78.44,
SC,Seychelles,,,-4.5833,55.6667,80.82.78.44,
SC,Seychelles,,,-4.5833,55.6667,80.82.78.44,
SC,Seychelles,,,-4.5833,55.6667,80.82.78.44,
SC,Seychelles,,,-4.5833,55.6667,80.82.78.44,
SC,Seychelles,,,-4.5833,55.6667,80.82.78.44,
SC,Seychelles,,,-4.5833,55.6667,80.82.78.44,
SC,Seychelles,,,-4.5833,55.6667,80.82.78.44,
SC,Seychelles,,,-4.5833,55.6667,80.82.78.44,
SC,Seychelles,,,-4.5833,55.6667,80.82.78.44,
SC,Seychelles,,,-4.5833,55.6667,80.82.78.44,
SC,Seychelles,,,-4.5833,55.6667,80.82.78.44,
SC,Seychelles,,,-4.5833,55.6667,80.82.78.44,
SC,Seychelles,,,-4.5833,55.6667,80.82.78.44,
SC,Seychelles,,,-4.5833,55.6667,80.82.78.44,
SC,Seychelles,,,-4.5833,55.6667,80.82.78.44,
SC,Seychelles,,,-4.5833,55.6667,80.82.78.44,
SC,Seychelles,,,-4.5833,55.6667,80.82.78.44,
SC,Seychelles,,,-4.5833,55.6667,80.82.78.44,
SC,Seychelles,,,-4.5833,55.6667,80.82.78.44,
PL,Poland,Lublin,20-258,51.2637,22.6305,178.216.26.177,Lublin
US,United States,San Francisco,94124,37.7353,-122.3732,192.241.222.180,California
Not found,Not found,Not found,Not found,Not found,Not found,IP Not found,Not found
BI,Burundi,Ngozi,,-2.9083,29.8278,196.2.10.74,Ngozi Province
Not found,Not found,Not found,Not found,Not found,Not found,IP Not found,Not found
BR,Brazil,Belo Horizonte,30000,-19.8993,-43.957,179.83.172.250,Minas Gerais
US,United States,Newark,07175,40.7357,-74.1724,45.56.100.135,New Jersey
CR,Costa Rica,Parrita,60901,9.562,-84.317,201.206.124.156,Provincia de Puntarenas
CZ,Czechia,Prague,110 00,50.0833,14.4667,78.108.177.52,Hlavni mesto Praha
AR,Argentina,,,-34.6033,-58.3817,170.210.45.163,
US,United States,San Francisco,94124,37.7353,-122.3732,192.241.215.228,California
SC,Seychelles,,,-4.5833,55.6667,94.102.61.45,
RU,Russia,Moscow,102292,55.7522,37.6156,5.188.210.227,Moscow
Not found,Not found,Not found,Not found,Not found,Not found,IP Not found,Not found
IQ,Iraq,Erbil,,36.1833,44.0119,185.136.150.5,Muhafazat Arbil
PL,Poland,,,52.2394,21.0362,62.148.70.94,
TW,Taiwan,Taipei,,25.0478,121.5318,61.219.11.152,Taipei City
PK,Pakistan,Attock,43560,33.8928,72.2407,175.107.1.23,Punjab
Not found,Not found,Not found,Not found,Not found,Not found,IP Not found,Not found
KR,South Korea,,,37.5112,126.97409999999999,1.236.16.124,
AU,Australia,Kambah,2902,-35.3862,149.058,124.171.87.30,Australian Capital Territory
US,United States,San Diego,92123,32.7973,-117.1392,209.126.136.3,California
MC,Monaco,Monaco,,43.7314,7.419,194.165.16.72,
MC,Monaco,Monaco,,43.7314,7.419,194.165.16.72,
US,United States,,,37.751,-97.822,64.62.197.2,
US,United States,San Francisco,94124,37.7353,-122.3732,192.241.195.249,California
US,United States,Layton,84041,41.0879,-111.9704,184.105.247.194,Utah
DE,Germany,,,51.2993,9.491,193.118.53.210,
US,United States,San Francisco,94124,37.7353,-122.3732,192.241.215.139,California
BR,Brazil,Sao Jose do Rio Preto,15000,-20.7691,-49.356700000000004,177.55.157.159,Sao Paulo
RU,Russia,Yekaterinburg,623101,56.9053,59.9436,141.101.196.233,Sverdlovskaya Oblast'
RU,Russia,Yekaterinburg,623101,56.9053,59.9436,141.101.196.233,Sverdlovskaya Oblast'
SG,Singapore,Singapore,,1.2931,103.8558,139.59.235.12,Central Singapore Community Development Council
US,United States,San Francisco,94124,37.7353,-122.3732,192.241.218.90,California
CN,China,,,31.0456,121.3997,106.75.177.49,Shanghai
MX,Mexico,Mazatlán,82170,23.2404,-106.4058,187.172.213.78,Sinaloa
US,United States,Los Angeles,90014,34.0494,-118.2641,172.247.125.74,California
US,United States,,,37.751,-97.822,12.3.205.242,
US,United States,Clifton,07014,40.8344,-74.1377,174.138.61.44,New Jersey
CZ,Czechia,Prague,110 00,50.0833,14.4667,78.108.177.50,Hlavni mesto Praha
ES,Spain,San Sebastián de los Reyes,28703,40.5443,-3.6159,146.255.185.134,Madrid
SG,Singapore,Singapore,,1.2931,103.8558,167.99.70.196,Central Singapore Community Development Council
SE,Sweden,,,59.3247,18.056,171.25.193.25,
RO,Romania,Bucharest,050374,44.4333,26.1,185.100.87.202,Bucuresti
US,United States,Atlanta,30301,33.749,-84.388,45.79.204.46,Georgia
US,United States,Tulsa,74104,36.1464,-95.9526,70.184.254.20,Oklahoma
BR,Brazil,Sao Luis de Montes Belos,76100,-16.4542,-50.3881,187.53.53.185,Goias
US,United States,Los Angeles,90012,34.0729,-118.2606,162.221.192.26,California
US,United States,Los Angeles,90012,34.0729,-118.2606,162.221.192.26,California
US,United States,San Francisco,94124,37.7353,-122.3732,192.241.216.202,California
US,United States,San Francisco,94124,37.7353,-122.3732,192.241.202.30,California
,,,,47,8,46.174.191.29,
RU,Russia,Yekaterinburg,623101,56.9053,59.9436,141.101.196.233,Sverdlovskaya Oblast'
RU,Russia,Yekaterinburg,623101,56.9053,59.9436,141.101.196.233,Sverdlovskaya Oblast'
Not found,Not found,Not found,Not found,Not found,Not found,IP Not found,Not found
Not found,Not found,Not found,Not found,Not found,Not found,IP Not found,Not found
CZ,Czechia,Prague,110 00,50.0833,14.4667,78.108.177.51,Hlavni mesto Praha
CN,China,Danyang,,31.9987,119.5784,180.120.64.147,Jiangsu
Not found,Not found,Not found,Not found,Not found,Not found,IP Not found,Not found
KR,South Korea,,,37.5112,126.97409999999999,1.236.16.124,
RO,Romania,Bucharest,050374,44.4333,26.1,185.100.87.136,Bucuresti
Not found,Not found,Not found,Not found,Not found,Not found,IP Not found,Not found
RU,Russia,,,55.7386,37.6068,213.226.123.30,
BR,Brazil,Sao Jose do Rio Preto,15000,-20.7691,-49.356700000000004,177.55.157.94,Sao Paulo
RU,Russia,,,55.7386,37.6068,213.226.123.30,
US,United States,Los Angeles,90012,34.0729,-118.2606,162.221.192.26,California
BR,Brazil,Sao Jose do Rio Preto,15000,-20.7691,-49.356700000000004,177.55.157.251,Sao Paulo
RU,Russia,,,55.7386,37.6068,213.226.123.30,
Not found,Not found,Not found,Not found,Not found,Not found,IP Not found,Not found
US,United States,San Francisco,94124,37.7353,-122.3732,192.241.221.6,California
US,United States,,,37.751,-97.822,104.28.210.50,
CN,China,,,34.7725,113.7266,111.7.100.19,
US,United States,Las Vegas,89101,36.1721,-115.1224,209.141.42.155,Nevada
CZ,Czechia,Prague,110 00,50.0833,14.4667,78.108.177.54,Hlavni mesto Praha
US,United States,Fremont,94539,37.5497,-121.9621,184.105.139.70,California
US,United States,Los Angeles,90012,34.0729,-118.2606,162.221.192.90,California
US,United States,San Francisco,94124,37.7353,-122.3732,192.241.222.149,California
SG,Singapore,Singapore,,1.2931,103.8558,139.59.235.12,Central Singapore Community Development Council
Not found,Not found,Not found,Not found,Not found,Not found,IP Not found,Not found
US,United States,Boardman,97818,45.8491,-119.7143,54.185.79.175,Oregon
Not found,Not found,Not found,Not found,Not found,Not found,IP Not found,Not found
US,United States,Cheyenne,82001,41.1034,-104.9059,45.61.188.28,Wyoming
SG,Singapore,Singapore,,1.2931,103.8558,8.218.31.40,Central Singapore Community Development Council
SG,Singapore,Singapore,,1.2931,103.8558,8.218.31.40,Central Singapore Community Development Council
SG,Singapore,Singapore,,1.2931,103.8558,8.218.31.40,Central Singapore Community Development Council
SG,Singapore,Singapore,,1.2931,103.8558,8.218.31.40,Central Singapore Community Development Council
SG,Singapore,Singapore,,1.2931,103.8558,8.218.31.40,Central Singapore Community Development Council
SG,Singapore,Singapore,,1.2931,103.8558,8.218.31.40,Central Singapore Community Development Council
SG,Singapore,Singapore,,1.2931,103.8558,8.218.31.40,Central Singapore Community Development Council
SG,Singapore,Singapore,,1.2931,103.8558,8.218.31.40,Central Singapore Community Development Council
SG,Singapore,Singapore,,1.2931,103.8558,8.218.31.40,Central Singapore Community Development Council
SG,Singapore,Singapore,,1.2931,103.8558,8.218.31.40,Central Singapore Community Development Council
SG,Singapore,Singapore,,1.2931,103.8558,8.218.31.40,Central Singapore Community Development Council
US,United States,San Francisco,94124,37.7353,-122.3732,192.241.220.30,California
US,United States,,,37.751,-97.822,64.62.197.152,
,,,,47,8,46.174.191.28,
Not found,Not found,Not found,Not found,Not found,Not found,IP Not found,Not found
DE,Germany,,,51.2993,9.491,185.173.35.37,
Not found,Not found,Not found,Not found,Not found,Not found,IP Not found,Not found
IR,Iran,,,35.6961,51.4231,37.32.36.100,
RU,Russia,Yekaterinburg,623101,56.9053,59.9436,141.101.196.233,Sverdlovskaya Oblast'
RU,Russia,Yekaterinburg,623101,56.9053,59.9436,141.101.196.233,Sverdlovskaya Oblast'
IN,India,Kanpur,208001,26.4667,80.35,117.215.253.77,Uttar Pradesh
Not found,Not found,Not found,Not found,Not found,Not found,IP Not found,Not found
US,United States,,,37.751,-97.822,167.94.146.58,
US,United States,,,37.751,-97.822,167.94.146.58,
US,United States,,,37.751,-97.822,167.94.146.58,
ES,Spain,San Sebastián de los Reyes,28703,40.5443,-3.6159,146.255.185.154,Madrid
US,United States,Chicago,60607,41.8721,-87.6578,50.31.21.6,Illinois
US,United States,Chicago,60607,41.8721,-87.6578,50.31.21.6,Illinois
US,United States,Chicago,60607,41.8721,-87.6578,50.31.21.6,Illinois
US,United States,Chicago,60607,41.8721,-87.6578,50.31.21.6,Illinois
US,United States,Chicago,60607,41.8721,-87.6578,50.31.21.6,Illinois
US,United States,Chicago,60607,41.8721,-87.6578,50.31.21.6,Illinois
US,United States,Chicago,60607,41.8721,-87.6578,50.31.21.6,Illinois
US,United States,Chicago,60607,41.8721,-87.6578,50.31.21.6,Illinois
DE,Germany,,,50.1167,8.6833,185.220.100.242,Hesse
US,United States,Seattle,98104,47.6036,-122.3256,23.129.64.144,Washington
US,United States,Los Angeles,90012,34.0729,-118.2606,23.251.102.82,California
US,United States,,,37.751,-97.822,167.248.133.45,
US,United States,,,37.751,-97.822,167.248.133.45,
US,United States,,,37.751,-97.822,167.248.133.45,
TR,Turkey,,,41.0214,28.9948,85.98.31.88,
RU,Russia,Yekaterinburg,623101,56.9053,59.9436,141.101.196.233,Sverdlovskaya Oblast'
RU,Russia,Yekaterinburg,623101,56.9053,59.9436,141.101.196.233,Sverdlovskaya Oblast'
PS,Palestine,Ramallah,,31.9,35.2,188.161.45.201,Ramallah
CN,China,Nanning,,22.8167,108.3167,113.12.83.41,Guangxi
CN,China,Nanning,,22.8167,108.3167,113.12.83.41,Guangxi
RU,Russia,,,55.7386,37.6068,213.226.123.30,
RU,Russia,,,55.7386,37.6068,213.226.123.30,
RU,Russia,,,55.7386,37.6068,213.226.123.30,
RU,Russia,,,55.7386,37.6068,213.226.123.30,
BZ,Belize,,,17.25,-88.75,45.227.254.52,
BZ,Belize,,,17.25,-88.75,45.227.254.52,
Not found,Not found,Not found,Not found,Not found,Not found,IP Not found,Not found
RU,Russia,Moscow,102292,55.7522,37.6156,193.124.7.9,Moscow
Not found,Not found,Not found,Not found,Not found,Not found,IP Not found,Not found
ES,Spain,San Sebastián de los Reyes,28703,40.5443,-3.6159,146.255.185.154,Madrid
US,United States,Cheyenne,82001,41.1034,-104.9059,45.61.188.28,Wyoming
Not found,Not found,Not found,Not found,Not found,Not found,IP Not found,Not found
UA,Ukraine,Uzhhorod,88000,48.6167,22.3,193.34.172.116,Transcarpathia
RU,Russia,Moscow,102292,55.7522,37.6156,193.124.7.9,Moscow
Not found,Not found,Not found,Not found,Not found,Not found,IP Not found,Not found
KR,South Korea,,,37.5112,126.97409999999999,1.236.16.124,
US,United States,,,37.751,-97.822,157.245.60.137,
US,United States,,,37.751,-97.822,157.245.60.137,
Not found,Not found,Not found,Not found,Not found,Not found,IP Not found,Not found
US,United States,,,37.751,-97.822,157.245.60.137,
US,United States,,,37.751,-97.822,157.245.60.137,
Not found,Not found,Not found,Not found,Not found,Not found,IP Not found,Not found
US,United States,,,37.751,-97.822,157.245.60.137,
US,United States,,,37.751,-97.822,157.245.60.137,
Not found,Not found,Not found,Not found,Not found,Not found,IP Not found,Not found
US,United States,,,37.751,-97.822,157.245.60.137,
US,United States,,,37.751,-97.822,157.245.60.137,
US,United States,,,37.751,-97.822,20.74.249.215,
US,United States,,,37.751,-97.822,20.74.249.215,
,,,,47,8,46.174.191.30,
LV,Latvia,Jelgava,LV-3002,56.65,23.7128,91.105.59.225,Jelgava
US,United States,,,37.751,-97.822,20.74.249.215,
US,United States,,,37.751,-97.822,20.74.249.215,
US,United States,,,37.751,-97.822,65.49.20.67,
MC,Monaco,Monaco,,43.7314,7.419,194.165.16.73,
MC,Monaco,Monaco,,43.7314,7.419,194.165.16.73,
US,United States,San Francisco,94124,37.7353,-122.3732,192.241.218.13,California
DE,Germany,,,51.2993,9.491,185.220.101.58,
DE,Germany,,,50.1167,8.6833,185.220.100.245,Hesse
SC,Seychelles,,,-4.5833,55.6667,94.102.61.45,
CN,China,,,31.0456,121.3997,106.75.227.154,Shanghai
IR,Iran,,,35.6961,51.4231,2.183.55.148,
SG,Singapore,Singapore,,1.2931,103.8558,139.59.235.12,Central Singapore Community Development Council
US,United States,Cheyenne,82001,41.1034,-104.9059,45.61.185.106,Wyoming
Not found,Not found,Not found,Not found,Not found,Not found,IP Not found,Not found
IR,Iran,,,35.6961,51.4231,151.238.177.167,
RU,Russia,Moscow,102292,55.7522,37.6156,193.124.7.9,Moscow
RU,Russia,Yekaterinburg,623101,56.9053,59.9436,141.101.196.233,Sverdlovskaya Oblast'
RU,Russia,Yekaterinburg,623101,56.9053,59.9436,141.101.196.233,Sverdlovskaya Oblast'
Not found,Not found,Not found,Not found,Not found,Not found,IP Not found,Not found
PK,Pakistan,Karachi,12311,24.9056,67.0822,175.107.246.138,Sindh
CN,China,,,24.4798,118.0819,121.206.30.81,Fujian
BG,Bulgaria,Blagoevgrad,2700,42.0167,23.1,79.124.62.106,Blagoevgrad
UA,Ukraine,Kerch,,45.3607,36.4706,5.188.144.78,Autonomous Republic of Crimea
US,United States,,,37.751,-97.822,162.142.125.220,
US,United States,,,37.751,-97.822,162.142.125.220,
US,United States,,,37.751,-97.822,162.142.125.220,
SC,Seychelles,,,-4.5833,55.6667,94.102.61.45,
BD,Bangladesh,Barisal,,22.705,90.3701,58.97.229.165,Barisal
CN,China,,,34.6836,113.5325,115.56.147.248,Henan
IN,India,Thiruvananthapuram,695024,8.5069,76.9569,117.221.176.229,Kerala
US,United States,Los Angeles,90012,34.0729,-118.2606,128.14.209.162,California
CZ,Czechia,Prague,110 00,50.0833,14.4667,78.108.177.54,Hlavni mesto Praha
,,,,47,8,46.174.191.32,
US,United States,Los Angeles,90012,34.0729,-118.2606,128.1.248.42,California
US,United States,,,37.751,-97.822,216.218.206.68,
Not found,Not found,Not found,Not found,Not found,Not found,IP Not found,Not found
Not found,Not found,Not found,Not found,Not found,Not found,IP Not found,Not found
Not found,Not found,Not found,Not found,Not found,Not found,IP Not found,Not found
Not found,Not found,Not found,Not found,Not found,Not found,IP Not found,Not found
Not found,Not found,Not found,Not found,Not found,Not found,IP Not found,Not found
CN,China,,,30.2936,120.1614,183.136.225.42,Zhejiang
Not found,Not found,Not found,Not found,Not found,Not found,IP Not found,Not found
CN,China,,,39.9289,116.3883,103.203.57.9,Beijing
Not found,Not found,Not found,Not found,Not found,Not found,IP Not found,Not found
US,United States,Birmingham,35254,33.5446,-86.9292,137.220.233.97,Alabama
Not found,Not found,Not found,Not found,Not found,Not found,IP Not found,Not found
Not found,Not found,Not found,Not found,Not found,Not found,IP Not found,Not found
Not found,Not found,Not found,Not found,Not found,Not found,IP Not found,Not found
Not found,Not found,Not found,Not found,Not found,Not found,IP Not found,Not found
Not found,Not found,Not found,Not found,Not found,Not found,IP Not found,Not found
PH,Philippines,Pasay,1109,14.5456,120.9958,112.211.94.75,Metro Manila
RU,Russia,,,55.7386,37.6068,85.119.151.250,
RU,Russia,,,55.7386,37.6068,85.119.151.250,
RU,Russia,,,55.7386,37.6068,85.119.151.251,
BR,Brazil,,,-22.8305,-43.2192,177.185.156.218,
RU,Russia,,,55.7386,37.6068,85.119.151.251,
RU,Russia,,,55.7386,37.6068,85.119.151.251,
RU,Russia,,,55.7386,37.6068,85.119.151.250,
BG,Bulgaria,Sofia,1000,42.6833,23.3167,82.103.73.50,Sofia-Capital
KR,South Korea,,,37.5112,126.97409999999999,1.236.16.124,
BR,Brazil,Pimenta Bueno,,-11.673,-61.193,170.79.84.165,Rondonia
,,,,47,8,46.174.191.31,
Not found,Not found,Not found,Not found,Not found,Not found,IP Not found,Not found
US,United States,,,37.751,-97.822,192.53.167.115,
DE,Germany,,,50.1167,8.6833,185.220.100.252,Hesse
DE,Germany,,,51.2993,9.491,185.220.101.42,
US,United States,Boardman,97818,45.8491,-119.7143,34.208.142.61,Oregon
Not found,Not found,Not found,Not found,Not found,Not found,IP Not found,Not found
US,United States,,,37.751,-97.822,167.94.138.117,
US,United States,,,37.751,-97.822,167.94.138.117,
RU,Russia,,,55.7386,37.6068,5.178.86.78,
RU,Russia,,,55.7386,37.6068,5.178.86.78,
RU,Russia,,,55.7386,37.6068,5.178.86.76,
ES,Spain,San Sebastián de los Reyes,28703,40.5443,-3.6159,146.255.185.134,Madrid
US,United States,Los Angeles,90014,34.0494,-118.2641,23.224.186.216,California
US,United States,Los Angeles,90014,34.0494,-118.2641,23.224.186.216,California
US,United States,Los Angeles,90014,34.0494,-118.2641,23.224.186.216,California
US,United States,Los Angeles,90014,34.0494,-118.2641,23.224.186.216,California
US,United States,Los Angeles,90014,34.0494,-118.2641,23.224.186.216,California
US,United States,Los Angeles,90014,34.0494,-118.2641,23.224.186.216,California
Not found,Not found,Not found,Not found,Not found,Not found,IP Not found,Not found
Not found,Not found,Not found,Not found,Not found,Not found,IP Not found,Not found
Not found,Not found,Not found,Not found,Not found,Not found,IP Not found,Not found
PA,Panama,,,9,-80,45.227.255.41,
PA,Panama,,,9,-80,45.227.255.41,
US,United States,San Francisco,94124,37.7353,-122.3732,192.241.215.48,California
CA,Canada,,,43.6319,-79.3716,198.235.24.148,
BR,Brazil,Mococa,13730,-21.4425,-47.0131,177.54.70.98,Sao Paulo
Not found,Not found,Not found,Not found,Not found,Not found,IP Not found,Not found
SG,Singapore,Singapore,,1.2931,103.8558,139.59.235.12,Central Singapore Community Development Council
Not found,Not found,Not found,Not found,Not found,Not found,IP Not found,Not found
Not found,Not found,Not found,Not found,Not found,Not found,IP Not found,Not found
Not found,Not found,Not found,Not found,Not found,Not found,IP Not found,Not found
Not found,Not found,Not found,Not found,Not found,Not found,IP Not found,Not found
Not found,Not found,Not found,Not found,Not found,Not found,IP Not found,Not found
Not found,Not found,Not found,Not found,Not found,Not found,IP Not found,Not found
Not found,Not found,Not found,Not found,Not found,Not found,IP Not found,Not found
US,United States,San Francisco,94124,37.7353,-122.3732,192.241.214.143,California
CN,China,,,34.6836,113.5325,182.126.16.193,Henan
IR,Iran,,,35.6961,51.4231,185.131.30.192,
IR,Iran,,,35.6961,51.4231,185.131.30.192,
CZ,Czechia,Prague,110 00,50.0833,14.4667,78.108.177.53,Hlavni mesto Praha
CN,China,,,34.6836,113.5325,221.15.93.39,Henan
SC,Seychelles,,,-4.5833,55.6667,94.102.61.45,
US,United States,Los Angeles,90012,34.0729,-118.2606,23.251.102.74,California
,,,,,,163.123.142.219,
US,United States,Boardman,97818,45.8491,-119.7143,34.208.142.61,Oregon
US,United States,San Francisco,94124,37.7353,-122.3732,192.241.213.143,California
US,United States,,,37.751,-97.822,64.62.197.182,
US,United States,San Jose,95141,37.3388,-121.8914,54.183.197.118,California
Not found,Not found,Not found,Not found,Not found,Not found,IP Not found,Not found
US,United States,Dallas,75207,32.7939,-96.8319,108.62.12.64,Texas
US,United States,,,37.751,-97.822,162.142.125.222,
US,United States,,,37.751,-97.822,162.142.125.222,
US,United States,,,37.751,-97.822,162.142.125.222,
Not found,Not found,Not found,Not found,Not found,Not found,IP Not found,Not found
BG,Bulgaria,Blagoevgrad,2700,42.0167,23.1,79.124.62.106,Blagoevgrad
US,United States,,,37.751,-97.822,216.218.206.67,
GB,United Kingdom,,,51.4964,-0.1224,62.171.147.55,
US,United States,,,37.751,-97.822,167.248.133.46,
US,United States,,,37.751,-97.822,167.248.133.46,
US,United States,,,37.751,-97.822,167.248.133.46,
Not found,Not found,Not found,Not found,Not found,Not found,IP Not found,Not found
US,United States,Absecon,08205,39.4745,-74.4575,172.105.87.91,New Jersey
US,United States,Absecon,08205,39.4745,-74.4575,172.105.87.91,New Jersey
US,United States,Absecon,08205,39.4745,-74.4575,172.105.87.91,New Jersey
US,United States,Absecon,08205,39.4745,-74.4575,172.105.87.91,New Jersey
US,United States,Absecon,08205,39.4745,-74.4575,172.105.87.91,New Jersey
US,United States,Absecon,08205,39.4745,-74.4575,172.105.87.91,New Jersey
US,United States,Absecon,08205,39.4745,-74.4575,172.105.87.91,New Jersey
US,United States,Absecon,08205,39.4745,-74.4575,172.105.87.91,New Jersey
US,United States,Absecon,08205,39.4745,-74.4575,172.105.87.91,New Jersey
US,United States,Absecon,08205,39.4745,-74.4575,172.105.87.91,New Jersey
US,United States,Absecon,08205,39.4745,-74.4575,172.105.87.91,New Jersey
US,United States,Absecon,08205,39.4745,-74.4575,172.105.87.91,New Jersey
US,United States,Absecon,08205,39.4745,-74.4575,172.105.87.91,New Jersey
US,United States,Absecon,08205,39.4745,-74.4575,172.105.87.91,New Jersey
US,United States,Absecon,08205,39.4745,-74.4575,172.105.87.91,New Jersey
US,United States,Absecon,08205,39.4745,-74.4575,172.105.87.91,New Jersey
US,United States,Absecon,08205,39.4745,-74.4575,172.105.87.91,New Jersey
US,United States,Absecon,08205,39.4745,-74.4575,172.105.87.91,New Jersey
US,United States,Absecon,08205,39.4745,-74.4575,172.105.87.91,New Jersey
US,United States,Absecon,08205,39.4745,-74.4575,172.105.87.91,New Jersey
US,United States,Absecon,08205,39.4745,-74.4575,172.105.87.91,New Jersey
US,United States,Absecon,08205,39.4745,-74.4575,172.105.87.91,New Jersey
US,United States,Absecon,08205,39.4745,-74.4575,172.105.87.91,New Jersey
US,United States,Absecon,08205,39.4745,-74.4575,172.105.87.91,New Jersey
US,United States,Absecon,08205,39.4745,-74.4575,172.105.87.91,New Jersey
US,United States,Absecon,08205,39.4745,-74.4575,172.105.87.91,New Jersey
US,United States,Absecon,08205,39.4745,-74.4575,172.105.87.91,New Jersey
US,United States,Absecon,08205,39.4745,-74.4575,172.105.87.91,New Jersey
US,United States,Absecon,08205,39.4745,-74.4575,172.105.87.91,New Jersey
US,United States,Absecon,08205,39.4745,-74.4575,172.105.87.91,New Jersey
US,United States,Absecon,08205,39.4745,-74.4575,172.105.87.91,New Jersey
US,United States,Absecon,08205,39.4745,-74.4575,172.105.87.91,New Jersey
US,United States,Absecon,08205,39.4745,-74.4575,172.105.87.91,New Jersey
US,United States,Absecon,08205,39.4745,-74.4575,172.105.87.91,New Jersey
US,United States,Absecon,08205,39.4745,-74.4575,172.105.87.91,New Jersey
US,United States,Absecon,08205,39.4745,-74.4575,172.105.87.91,New Jersey
US,United States,Absecon,08205,39.4745,-74.4575,172.105.87.91,New Jersey
US,United States,Absecon,08205,39.4745,-74.4575,172.105.87.91,New Jersey
US,United States,Absecon,08205,39.4745,-74.4575,172.105.87.91,New Jersey
US,United States,Absecon,08205,39.4745,-74.4575,172.105.87.91,New Jersey
US,United States,Absecon,08205,39.4745,-74.4575,172.105.87.91,New Jersey
US,United States,Absecon,08205,39.4745,-74.4575,172.105.87.91,New Jersey
US,United States,Absecon,08205,39.4745,-74.4575,172.105.87.91,New Jersey
US,United States,Absecon,08205,39.4745,-74.4575,172.105.87.91,New Jersey
US,United States,Absecon,08205,39.4745,-74.4575,172.105.87.91,New Jersey
US,United States,Absecon,08205,39.4745,-74.4575,172.105.87.91,New Jersey
Not found,Not found,Not found,Not found,Not found,Not found,IP Not found,Not found
,,,,47,8,46.174.191.28,
Not found,Not found,Not found,Not found,Not found,Not found,IP Not found,Not found
Not found,Not found,Not found,Not found,Not found,Not found,IP Not found,Not found
Not found,Not found,Not found,Not found,Not found,Not found,IP Not found,Not found
Not found,Not found,Not found,Not found,Not found,Not found,IP Not found,Not found
Not found,Not found,Not found,Not found,Not found,Not found,IP Not found,Not found
Not found,Not found,Not found,Not found,Not found,Not found,IP Not found,Not found
Not found,Not found,Not found,Not found,Not found,Not found,IP Not found,Not found
Not found,Not found,Not found,Not found,Not found,Not found,IP Not found,Not found
Not found,Not found,Not found,Not found,Not found,Not found,IP Not found,Not found
Not found,Not found,Not found,Not found,Not found,Not found,IP Not found,Not found
RU,Russia,Yekaterinburg,623101,56.9053,59.9436,141.101.196.233,Sverdlovskaya Oblast'
RU,Russia,Yekaterinburg,623101,56.9053,59.9436,141.101.196.233,Sverdlovskaya Oblast'
Not found,Not found,Not found,Not found,Not found,Not found,IP Not found,Not found
Not found,Not found,Not found,Not found,Not found,Not found,IP Not found,Not found
CA,Canada,,,43.6319,-79.3716,198.235.24.24,
Not found,Not found,Not found,Not found,Not found,Not found,IP Not found,Not found
Not found,Not found,Not found,Not found,Not found,Not found,IP Not found,Not found
RU,Russia,,,55.7386,37.6068,85.119.151.254,
RU,Russia,,,55.7386,37.6068,85.119.151.254,
RU,Russia,,,55.7386,37.6068,85.119.151.252,
RU,Russia,Yekaterinburg,623101,56.9053,59.9436,141.101.196.233,Sverdlovskaya Oblast'
RU,Russia,Yekaterinburg,623101,56.9053,59.9436,141.101.196.233,Sverdlovskaya Oblast'
BR,Brazil,Campinas,,-22.9095,-47.0674,191.232.38.25,Sao Paulo
DE,Germany,,,51.2993,9.491,185.173.35.1,
Not found,Not found,Not found,Not found,Not found,Not found,IP Not found,Not found
Not found,Not found,Not found,Not found,Not found,Not found,IP Not found,Not found
Not found,Not found,Not found,Not found,Not found,Not found,IP Not found,Not found
MN,Mongolia,,,46,105,180.149.125.164,
Not found,Not found,Not found,Not found,Not found,Not found,IP Not found,Not found
CN,China,Shenzhen,,22.5333,114.1333,113.89.245.101,Guangdong
KR,South Korea,,,37.5112,126.97409999999999,1.236.16.124,
BR,Brazil,Lagoa,58835,-6.5952,-37.8499,167.249.102.67,Paraíba
US,United States,,,37.751,-97.822,64.62.197.32,
US,United States,San Francisco,94124,37.7353,-122.3732,192.241.211.199,California
US,United States,,,37.751,-97.822,167.248.133.117,
US,United States,,,37.751,-97.822,167.248.133.117,
US,United States,,,37.751,-97.822,167.248.133.117,
Not found,Not found,Not found,Not found,Not found,Not found,IP Not found,Not found
SK,Slovakia,,,48.6667,19.5,185.180.143.136,
US,United States,,,37.751,-97.822,162.142.125.210,
US,United States,,,37.751,-97.822,162.142.125.210,
US,United States,,,37.751,-97.822,162.142.125.210,
SG,Singapore,Singapore,,1.2931,103.8558,139.59.235.12,Central Singapore Community Development Council
Not found,Not found,Not found,Not found,Not found,Not found,IP Not found,Not found
Not found,Not found,Not found,Not found,Not found,Not found,IP Not found,Not found
Not found,Not found,Not found,Not found,Not found,Not found,IP Not found,Not found
US,United States,Las Vegas,89169,36.1234,-115.1429,104.140.188.42,Nevada
Not found,Not found,Not found,Not found,Not found,Not found,IP Not found,Not found
Not found,Not found,Not found,Not found,Not found,Not found,IP Not found,Not found
Not found,Not found,Not found,Not found,Not found,Not found,IP Not found,Not found
Not found,Not found,Not found,Not found,Not found,Not found,IP Not found,Not found
CA,Canada,,,43.6319,-79.3716,198.235.24.158,
Not found,Not found,Not found,Not found,Not found,Not found,IP Not found,Not found
Not found,Not found,Not found,Not found,Not found,Not found,IP Not found,Not found
Not found,Not found,Not found,Not found,Not found,Not found,IP Not found,Not found
Not found,Not found,Not found,Not found,Not found,Not found,IP Not found,Not found
BR,Brazil,Pouso Alegre,37550,-22.2527,-45.9076,170.78.163.26,Minas Gerais
CN,China,,,28.1792,113.1136,113.220.19.193,Hunan
US,United States,Castro Valley,94546,37.7015,-122.0782,23.90.160.130,California
Not found,Not found,Not found,Not found,Not found,Not found,IP Not found,Not found
CN,China,,,39.9289,116.3883,103.203.57.9,Beijing
US,United States,Fremont,94539,37.5497,-121.9621,184.105.139.67,California
ID,Indonesia,Semarang,,-6.9931,110.4208,180.246.64.80,Central Java
Not found,Not found,Not found,Not found,Not found,Not found,IP Not found,Not found
RU,Russia,Yekaterinburg,623101,56.9053,59.9436,141.101.196.233,Sverdlovskaya Oblast'
RU,Russia,Yekaterinburg,623101,56.9053,59.9436,141.101.196.233,Sverdlovskaya Oblast'
IE,Ireland,Dublin,D02,53.3331,-6.2489,34.253.115.107,Leinster
RU,Russia,Moscow,102292,55.7522,37.6156,193.124.7.9,Moscow
ZA,South Africa,Johannesburg,2000,-26.2309,28.0583,154.198.211.137,Gauteng
ZA,South Africa,Johannesburg,2000,-26.2309,28.0583,154.198.211.137,Gauteng
ZA,South Africa,Johannesburg,2000,-26.2309,28.0583,154.198.211.137,Gauteng
ZA,South Africa,Johannesburg,2000,-26.2309,28.0583,154.198.211.137,Gauteng
ZA,South Africa,Johannesburg,2000,-26.2309,28.0583,154.198.211.137,Gauteng
ZA,South Africa,Johannesburg,2000,-26.2309,28.0583,154.198.211.137,Gauteng
Not found,Not found,Not found,Not found,Not found,Not found,IP Not found,Not found
FR,France,Cagnes-sur-Mer,06800,43.6646,7.1534,62.35.141.96,Alpes-Maritimes
AR,Argentina,,,-34.6033,-58.3817,186.152.97.84,
Not found,Not found,Not found,Not found,Not found,Not found,IP Not found,Not found
US,United States,Las Vegas,89169,36.1234,-115.1429,104.206.128.50,Nevada
RU,Russia,Yekaterinburg,623101,56.9053,59.9436,141.101.196.233,Sverdlovskaya Oblast'
RU,Russia,Yekaterinburg,623101,56.9053,59.9436,141.101.196.233,Sverdlovskaya Oblast'
,,,,47,8,46.174.191.31,
US,United States,Los Angeles,90012,34.0729,-118.2606,128.14.134.134,California
US,United States,Los Angeles,90012,34.0729,-118.2606,128.14.134.134,California
RO,Romania,Bucharest,050374,44.4333,26.1,185.100.87.136,Bucuresti
LV,Latvia,,,57,25,188.92.77.15,
US,United States,San Diego,92123,32.7973,-117.1392,71.6.135.131,California
US,United States,San Diego,92123,32.7973,-117.1392,71.6.135.131,California
,,,,47,8,35.195.93.98,
KR,South Korea,,,37.5112,126.97409999999999,1.236.16.124,
RU,Russia,Moscow,102292,55.7522,37.6156,193.124.7.9,Moscow
CZ,Czechia,Prague,110 00,50.0833,14.4667,78.108.177.53,Hlavni mesto Praha
TW,Taiwan,Taipei,,25.0478,121.5318,36.226.218.97,Taipei City
GR,Greece,Thessaloniki,,40.6403,22.9439,79.103.102.136,Thessaloniki
BZ,Belize,,,17.25,-88.75,45.227.254.10,
BZ,Belize,,,17.25,-88.75,45.227.254.10,
CN,China,,,30.2936,120.1614,183.136.225.42,Zhejiang
CN,China,,,30.2936,120.1614,183.136.225.42,Zhejiang
CN,China,,,30.2936,120.1614,183.136.225.42,Zhejiang
US,United States,,,37.751,-97.822,74.82.47.3,
Not found,Not found,Not found,Not found,Not found,Not found,IP Not found,Not found
RU,Russia,Yekaterinburg,623101,56.9053,59.9436,141.101.196.233,Sverdlovskaya Oblast'
Not found,Not found,Not found,Not found,Not found,Not found,IP Not found,Not found
CN,China,,,39.9289,116.3883,122.14.218.28,Beijing
CN,China,,,39.9289,116.3883,122.14.218.28,Beijing
CN,China,,,39.9289,116.3883,122.14.218.28,Beijing
CN,China,,,39.9289,116.3883,122.14.218.28,Beijing
CN,China,,,39.9289,116.3883,122.14.218.28,Beijing
CN,China,,,39.9289,116.3883,122.14.218.28,Beijing
CN,China,,,39.9289,116.3883,122.14.218.28,Beijing
CN,China,,,39.9289,116.3883,122.14.218.28,Beijing
CN,China,,,39.9289,116.3883,122.14.218.28,Beijing
CN,China,,,39.9289,116.3883,122.14.218.28,Beijing
US,United States,Cheyenne,82001,41.1034,-104.9059,45.61.186.19,Wyoming
Not found,Not found,Not found,Not found,Not found,Not found,IP Not found,Not found
SG,Singapore,Singapore,,1.2931,103.8558,139.59.235.12,Central Singapore Community Development Council
BE,Belgium,Brussels,1180,50.8466,4.3528,217.136.230.20,Brussels Capital
DE,Germany,,,51.2993,9.491,193.118.53.210,
US,United States,San Francisco,94124,37.7353,-122.3732,192.241.218.136,California
US,United States,Fremont,94539,37.5497,-121.9621,184.105.139.70,California
,,,,,,163.123.142.219,
,,,,47,8,46.174.191.28,
Not found,Not found,Not found,Not found,Not found,Not found,IP Not found,Not found
Not found,Not found,Not found,Not found,Not found,Not found,IP Not found,Not found
Not found,Not found,Not found,Not found,Not found,Not found,IP Not found,Not found
Not found,Not found,Not found,Not found,Not found,Not found,IP Not found,Not found
Not found,Not found,Not found,Not found,Not found,Not found,IP Not found,Not found
Not found,Not found,Not found,Not found,Not found,Not found,IP Not found,Not found
Not found,Not found,Not found,Not found,Not found,Not found,IP Not found,Not found
Not found,Not found,Not found,Not found,Not found,Not found,IP Not found,Not found
Not found,Not found,Not found,Not found,Not found,Not found,IP Not found,Not found
Not found,Not found,Not found,Not found,Not found,Not found,IP Not found,Not found
Not found,Not found,Not found,Not found,Not found,Not found,IP Not found,Not found
Not found,Not found,Not found,Not found,Not found,Not found,IP Not found,Not found
US,United States,Los Angeles,90012,34.0729,-118.2606,128.1.248.26,California
US,United States,San Francisco,94124,37.7353,-122.3732,192.241.218.99,California
RU,Russia,Moscow,102292,55.7522,37.6156,193.124.7.9,Moscow
US,United States,San Francisco,94124,37.7353,-122.3732,192.241.211.239,California
TR,Turkey,Istanbul,34110,41.0177,28.9744,85.105.172.89,Istanbul
KE,Kenya,,,1,38,154.79.242.178,
CZ,Czechia,Prague,110 00,50.0833,14.4667,78.108.177.53,Hlavni mesto Praha
US,United States,,,37.751,-97.822,167.248.133.120,
US,United States,,,37.751,-97.822,167.248.133.120,
US,United States,,,37.751,-97.822,167.248.133.120,
US,United States,San Francisco,94124,37.7353,-122.3732,192.241.204.91,California
US,United States,,,37.751,-97.822,167.94.145.59,
US,United States,,,37.751,-97.822,167.94.145.59,
US,United States,,,37.751,-97.822,167.94.145.59,
KR,South Korea,,,37.5112,126.97409999999999,1.236.16.124,
KR,South Korea,,,37.5112,126.97409999999999,112.175.232.145,
KR,South Korea,,,37.5112,126.97409999999999,112.175.232.145,
DE,Germany,,,51.2993,9.491,193.118.53.194,
DE,Germany,,,51.2993,9.491,193.118.53.194,
SE,Sweden,,,59.3247,18.056,171.25.193.77,
Not found,Not found,Not found,Not found,Not found,Not found,IP Not found,Not found
BR,Brazil,Piracicaba,13400,-22.7158,-47.773,187.181.57.168,Sao Paulo
Not found,Not found,Not found,Not found,Not found,Not found,IP Not found,Not found
RU,Russia,Vyazniki,601441,56.25,42.1667,195.88.58.125,Vladimirskaya Oblast'
US,United States,Los Angeles,90012,34.0729,-118.2606,128.1.248.26,California
US,United States,New York,10013,40.7185,-74.0025,134.209.159.157,New York
Not found,Not found,Not found,Not found,Not found,Not found,IP Not found,Not found
SG,Singapore,Singapore,,1.2931,103.8558,139.59.235.12,Central Singapore Community Development Council
US,United States,Atlanta,30301,33.749,-84.388,45.33.101.246,Georgia
US,United States,Atlanta,30301,33.749,-84.388,45.33.101.246,Georgia
US,United States,Atlanta,30301,33.749,-84.388,45.33.101.246,Georgia
US,United States,Atlanta,30301,33.749,-84.388,45.33.101.246,Georgia
US,United States,Atlanta,30301,33.749,-84.388,45.33.101.246,Georgia
US,United States,Atlanta,30301,33.749,-84.388,45.33.101.246,Georgia
US,United States,Atlanta,30301,33.749,-84.388,45.33.101.246,Georgia
US,United States,Atlanta,30301,33.749,-84.388,45.33.101.246,Georgia
US,United States,Atlanta,30301,33.749,-84.388,45.33.101.246,Georgia
US,United States,Atlanta,30301,33.749,-84.388,45.33.101.246,Georgia
US,United States,Atlanta,30301,33.749,-84.388,45.33.101.246,Georgia
US,United States,Atlanta,30301,33.749,-84.388,45.33.101.246,Georgia
US,United States,Atlanta,30301,33.749,-84.388,45.33.101.246,Georgia
US,United States,Atlanta,30301,33.749,-84.388,45.33.101.246,Georgia
US,United States,Atlanta,30301,33.749,-84.388,45.33.101.246,Georgia
US,United States,Atlanta,30301,33.749,-84.388,45.33.101.246,Georgia
US,United States,Atlanta,30301,33.749,-84.388,45.33.101.246,Georgia
US,United States,Atlanta,30301,33.749,-84.388,45.33.101.246,Georgia
US,United States,Atlanta,30301,33.749,-84.388,45.33.101.246,Georgia
US,United States,Atlanta,30301,33.749,-84.388,45.33.101.246,Georgia
US,United States,Atlanta,30301,33.749,-84.388,45.33.101.246,Georgia
US,United States,Atlanta,30301,33.749,-84.388,45.33.101.246,Georgia
US,United States,Atlanta,30301,33.749,-84.388,45.33.101.246,Georgia
US,United States,Atlanta,30301,33.749,-84.388,45.33.101.246,Georgia
US,United States,Atlanta,30301,33.749,-84.388,45.33.101.246,Georgia
US,United States,Atlanta,30301,33.749,-84.388,45.33.101.246,Georgia
US,United States,Atlanta,30301,33.749,-84.388,45.33.101.246,Georgia
US,United States,Atlanta,30301,33.749,-84.388,45.33.101.246,Georgia
US,United States,Atlanta,30301,33.749,-84.388,45.33.101.246,Georgia
US,United States,Atlanta,30301,33.749,-84.388,45.33.101.246,Georgia
US,United States,Atlanta,30301,33.749,-84.388,45.33.101.246,Georgia
US,United States,Atlanta,30301,33.749,-84.388,45.33.101.246,Georgia
US,United States,Atlanta,30301,33.749,-84.388,45.33.101.246,Georgia
US,United States,Atlanta,30301,33.749,-84.388,45.33.101.246,Georgia
US,United States,Atlanta,30301,33.749,-84.388,45.33.101.246,Georgia
US,United States,Atlanta,30301,33.749,-84.388,45.33.101.246,Georgia
US,United States,Atlanta,30301,33.749,-84.388,45.33.101.246,Georgia
US,United States,Atlanta,30301,33.749,-84.388,45.33.101.246,Georgia
US,United States,Atlanta,30301,33.749,-84.388,45.33.101.246,Georgia
CZ,Czechia,Prague,110 00,50.0833,14.4667,78.108.177.53,Hlavni mesto Praha
Not found,Not found,Not found,Not found,Not found,Not found,IP Not found,Not found
Not found,Not found,Not found,Not found,Not found,Not found,IP Not found,Not found
Not found,Not found,Not found,Not found,Not found,Not found,IP Not found,Not found
Not found,Not found,Not found,Not found,Not found,Not found,IP Not found,Not found
Not found,Not found,Not found,Not found,Not found,Not found,IP Not found,Not found
Not found,Not found,Not found,Not found,Not found,Not found,IP Not found,Not found
,,,,47,8,46.174.191.32,
Not found,Not found,Not found,Not found,Not found,Not found,IP Not found,Not found
Not found,Not found,Not found,Not found,Not found,Not found,IP Not found,Not found
Not found,Not found,Not found,Not found,Not found,Not found,IP Not found,Not found
Not found,Not found,Not found,Not found,Not found,Not found,IP Not found,Not found
Not found,Not found,Not found,Not found,Not found,Not found,IP Not found,Not found
Not found,Not found,Not found,Not found,Not found,Not found,IP Not found,Not found
Not found,Not found,Not found,Not found,Not found,Not found,IP Not found,Not found
Not found,Not found,Not found,Not found,Not found,Not found,IP Not found,Not found
Not found,Not found,Not found,Not found,Not found,Not found,IP Not found,Not found
,,,,47,8,138.199.42.172,
IN,India,,,20,77,180.215.130.45,
IN,India,,,20,77,180.215.130.45,
Not found,Not found,Not found,Not found,Not found,Not found,IP Not found,Not found
US,United States,,,37.751,-97.822,65.49.20.67,
US,United States,,,37.751,-97.822,20.101.112.219,
US,United States,,,37.751,-97.822,20.101.112.219,
Not found,Not found,Not found,Not found,Not found,Not found,IP Not found,Not found
Not found,Not found,Not found,Not found,Not found,Not found,IP Not found,Not found
Not found,Not found,Not found,Not found,Not found,Not found,IP Not found,Not found
LV,Latvia,,,57,25,188.92.77.15,
US,United States,,,37.751,-97.822,64.62.197.92,
US,United States,,,37.751,-97.822,162.142.125.221,
US,United States,,,37.751,-97.822,162.142.125.221,
US,United States,,,37.751,-97.822,162.142.125.221,
,,,,47,8,46.174.191.28,
RU,Russia,Moscow,102292,55.7522,37.6156,193.124.7.9,Moscow
BZ,Belize,,,17.25,-88.75,45.227.254.49,
BZ,Belize,,,17.25,-88.75,45.227.254.49,
US,United States,,,37.751,-97.822,129.80.69.190,
US,United States,,,37.751,-97.822,129.80.69.190,
US,United States,,,37.751,-97.822,129.80.69.190,
US,United States,,,37.751,-97.822,129.80.69.190,
US,United States,,,37.751,-97.822,129.80.69.190,
US,United States,,,37.751,-97.822,129.80.69.190,
US,United States,,,37.751,-97.822,129.80.69.190,
US,United States,,,37.751,-97.822,129.80.69.190,
US,United States,,,37.751,-97.822,129.80.69.190,
US,United States,,,37.751,-97.822,129.80.69.190,
US,United States,,,37.751,-97.822,129.80.69.190,
US,United States,,,37.751,-97.822,129.80.69.190,
RU,Russia,Yekaterinburg,623101,56.9053,59.9436,141.101.196.233,Sverdlovskaya Oblast'
RU,Russia,Yekaterinburg,623101,56.9053,59.9436,141.101.196.233,Sverdlovskaya Oblast'
CN,China,Beijing,,39.9288,116.3889,223.71.167.166,Beijing
US,United States,Cheyenne,82001,41.1034,-104.9059,45.61.185.106,Wyoming
KE,Kenya,,,1,38,197.232.69.189,
TH,Thailand,Ratchaburi,70140,13.3833,99.85,134.236.115.148,Changwat Ratchaburi
KR,South Korea,,,37.5112,126.97409999999999,1.236.16.124,
US,United States,Las Vegas,89169,36.1234,-115.1429,104.140.188.2,Nevada
RU,Russia,Yekaterinburg,623101,56.9053,59.9436,141.101.196.233,Sverdlovskaya Oblast'
RU,Russia,Yekaterinburg,623101,56.9053,59.9436,141.101.196.233,Sverdlovskaya Oblast'
Not found,Not found,Not found,Not found,Not found,Not found,IP Not found,Not found
MC,Monaco,Monaco,,43.7314,7.419,194.165.16.72,
MC,Monaco,Monaco,,43.7314,7.419,194.165.16.72,
RU,Russia,Yekaterinburg,623101,56.9053,59.9436,141.101.196.233,Sverdlovskaya Oblast'
RU,Russia,Yekaterinburg,623101,56.9053,59.9436,141.101.196.233,Sverdlovskaya Oblast'
,,,,,,163.123.142.219,
Not found,Not found,Not found,Not found,Not found,Not found,IP Not found,Not found
RU,Russia,,,55.7386,37.6068,85.119.151.254,
RU,Russia,,,55.7386,37.6068,85.119.151.254,
RU,Russia,,,55.7386,37.6068,85.119.151.250,
Not found,Not found,Not found,Not found,Not found,Not found,IP Not found,Not found
US,United States,,,37.751,-97.822,74.82.47.5,
US,United States,,,37.751,-97.822,64.62.197.182,
CZ,Czechia,Prague,110 00,50.0833,14.4667,78.108.177.50,Hlavni mesto Praha
TR,Turkey,Antalya,07100,36.8767,30.709600000000002,88.225.229.111,Antalya
RU,Russia,Yekaterinburg,623101,56.9053,59.9436,141.101.196.233,Sverdlovskaya Oblast'
RU,Russia,Yekaterinburg,623101,56.9053,59.9436,141.101.196.233,Sverdlovskaya Oblast'
SG,Singapore,Singapore,,1.2931,103.8558,139.59.235.12,Central Singapore Community Development Council
CN,China,,,30.2936,120.1614,183.136.225.9,Zhejiang
CN,China,,,30.2936,120.1614,183.136.225.9,Zhejiang
CN,China,,,30.2936,120.1614,183.136.225.9,Zhejiang
RU,Russia,,,55.7386,37.6068,85.119.151.250,
RU,Russia,,,55.7386,37.6068,85.119.151.250,
RU,Russia,,,55.7386,37.6068,85.119.151.252,
RU,Russia,Yekaterinburg,623101,56.9053,59.9436,141.101.196.233,Sverdlovskaya Oblast'
RU,Russia,Yekaterinburg,623101,56.9053,59.9436,141.101.196.233,Sverdlovskaya Oblast'
MN,Mongolia,,,46,105,180.149.125.164,
RU,Russia,,,55.7386,37.6068,85.119.151.250,
RU,Russia,,,55.7386,37.6068,85.119.151.250,
RU,Russia,,,55.7386,37.6068,85.119.151.253,
Not found,Not found,Not found,Not found,Not found,Not found,IP Not found,Not found
RU,Russia,,,55.7386,37.6068,85.119.151.254,
RU,Russia,,,55.7386,37.6068,85.119.151.250,
IT,Italy,Dalmine,24044,45.6493,9.6062,5.11.33.140,Provincia di Bergamo
IT,Italy,Dalmine,24044,45.6493,9.6062,5.11.33.140,Provincia di Bergamo
MC,Monaco,Monaco,,43.7314,7.419,194.165.16.73,
MC,Monaco,Monaco,,43.7314,7.419,194.165.16.73,
RU,Russia,,,55.7386,37.6068,85.119.151.250,
RU,Russia,,,55.7386,37.6068,85.119.151.251,
RU,Russia,,,55.7386,37.6068,85.119.151.252,
RU,Russia,,,55.7386,37.6068,85.119.151.253,
Not found,Not found,Not found,Not found,Not found,Not found,IP Not found,Not found
RU,Russia,Yekaterinburg,623101,56.9053,59.9436,141.101.196.233,Sverdlovskaya Oblast'
RU,Russia,Yekaterinburg,623101,56.9053,59.9436,141.101.196.233,Sverdlovskaya Oblast'
SC,Seychelles,,,-4.5833,55.6667,89.248.165.24,
Not found,Not found,Not found,Not found,Not found,Not found,IP Not found,Not found
RU,Russia,Yekaterinburg,623101,56.9053,59.9436,141.101.196.233,Sverdlovskaya Oblast'
RU,Russia,Yekaterinburg,623101,56.9053,59.9436,141.101.196.233,Sverdlovskaya Oblast'
Not found,Not found,Not found,Not found,Not found,Not found,IP Not found,Not found
US,United States,,,37.751,-97.822,206.42.37.255,
US,United States,San Francisco,94124,37.7353,-122.3732,192.241.197.12,California
RU,Russia,Moscow,102292,55.7522,37.6156,193.124.7.9,Moscow
CN,China,,,39.9289,116.3883,103.203.57.9,Beijing
RU,Russia,,,55.7386,37.6068,85.119.151.253,
RU,Russia,,,55.7386,37.6068,85.119.151.253,
RU,Russia,,,55.7386,37.6068,85.119.151.252,
LT,Republic of Lithuania,,,56,24,141.98.9.13,
RU,Russia,,,55.7386,37.6068,85.119.151.252,
RU,Russia,,,55.7386,37.6068,85.119.151.252,
RU,Russia,,,55.7386,37.6068,85.119.151.254,
SC,Seychelles,,,-4.5833,55.6667,89.248.165.24,
US,United States,Los Angeles,90012,34.0729,-118.2606,128.14.134.134,California
IT,Italy,Milan,20142,45.4643,9.1895,88.147.118.17,Milan
RU,Russia,,,55.7386,37.6068,85.119.151.250,
RU,Russia,,,55.7386,37.6068,85.119.151.250,
RU,Russia,,,55.7386,37.6068,85.119.151.253,
RU,Russia,Yekaterinburg,623101,56.9053,59.9436,141.101.196.233,Sverdlovskaya Oblast'
RU,Russia,Yekaterinburg,623101,56.9053,59.9436,141.101.196.233,Sverdlovskaya Oblast'
US,United States,San Francisco,94124,37.7353,-122.3732,192.241.214.42,California
,,,,47,8,46.174.191.29,
CN,China,,,28.1792,113.1136,223.149.181.205,Hunan
CZ,Czechia,Prague,110 00,50.0833,14.4667,78.108.177.54,Hlavni mesto Praha
,,,,47,8,46.174.191.31,
US,United States,San Francisco,94124,37.7353,-122.3732,192.241.225.86,California
Not found,Not found,Not found,Not found,Not found,Not found,IP Not found,Not found
KR,South Korea,,,37.5112,126.97409999999999,1.236.16.124,
Not found,Not found,Not found,Not found,Not found,Not found,IP Not found,Not found
IN,India,Gogaon,442605,20.2268,80.0159,59.95.95.201,Maharashtra
Not found,Not found,Not found,Not found,Not found,Not found,IP Not found,Not found
Not found,Not found,Not found,Not found,Not found,Not found,IP Not found,Not found
Not found,Not found,Not found,Not found,Not found,Not found,IP Not found,Not found
US,United States,Los Angeles,90012,34.0729,-118.2606,23.251.102.74,California
Not found,Not found,Not found,Not found,Not found,Not found,IP Not found,Not found
Not found,Not found,Not found,Not found,Not found,Not found,IP Not found,Not found
Not found,Not found,Not found,Not found,Not found,Not found,IP Not found,Not found
Not found,Not found,Not found,Not found,Not found,Not found,IP Not found,Not found
Not found,Not found,Not found,Not found,Not found,Not found,IP Not found,Not found
Not found,Not found,Not found,Not found,Not found,Not found,IP Not found,Not found
Not found,Not found,Not found,Not found,Not found,Not found,IP Not found,Not found
US,United States,Cheyenne,82001,41.1034,-104.9059,45.61.185.106,Wyoming
BR,Brazil,Petrolina,56300,-9.393,-40.5077,138.118.235.134,Pernambuco
RU,Russia,Yekaterinburg,623101,56.9053,59.9436,141.101.196.233,Sverdlovskaya Oblast'
RU,Russia,Yekaterinburg,623101,56.9053,59.9436,141.101.196.233,Sverdlovskaya Oblast'
IR,Iran,,,35.6961,51.4231,46.245.20.90,
NG,Nigeria,,,10,8,197.157.217.185,
US,United States,Layton,84041,41.0879,-111.9704,184.105.247.195,Utah
SG,Singapore,Singapore,,1.2931,103.8558,139.59.235.12,Central Singapore Community Development Council
CA,Canada,,,43.6319,-79.3716,198.235.24.5,
US,United States,,,37.751,-97.822,143.198.117.18,
US,United States,,,37.751,-97.822,143.198.117.18,
US,United States,,,37.751,-97.822,143.198.117.18,
US,United States,,,37.751,-97.822,143.198.117.18,
US,United States,,,37.751,-97.822,143.198.117.18,
US,United States,Castro Valley,94546,37.7015,-122.0782,23.90.160.130,California
DE,Germany,,,51.2993,9.491,185.173.35.9,
US,United States,Las Vegas,89169,36.1234,-115.1429,104.206.128.54,Nevada
US,United States,,,37.751,-97.822,64.62.197.62,
NL,Netherlands,,,52.3824,4.8995,85.202.169.124,
US,United States,Los Angeles,90012,34.0729,-118.2606,128.14.133.58,California
IN,India,Faridabad,121004,28.4333,77.3167,103.113.106.211,Haryana
,,,,47,8,46.174.191.28,
KH,Cambodia,Phnom Penh,,11.5625,104.916,36.37.226.212,Phnom Penh
IR,Iran,,,35.6961,51.4231,185.128.155.204,
BR,Brazil,Londrina,,-23.3,-51.15,189.14.22.98,Parana
KR,South Korea,,,37.5112,126.97409999999999,112.175.232.145,
KR,South Korea,,,37.5112,126.97409999999999,112.175.232.145,
PL,Poland,Puławy,24-100,51.4114,21.977,93.175.161.174,Lublin
CZ,Czechia,Prague,110 00,50.0833,14.4667,78.108.177.52,Hlavni mesto Praha
RU,Russia,Yekaterinburg,623101,56.9053,59.9436,141.101.196.233,Sverdlovskaya Oblast'
US,United States,,,37.751,-97.822,162.142.125.7,
US,United States,,,37.751,-97.822,162.142.125.7,
AM,Armenia,,,40,45,195.250.94.158,
Not found,Not found,Not found,Not found,Not found,Not found,IP Not found,Not found
Not found,Not found,Not found,Not found,Not found,Not found,IP Not found,Not found
Not found,Not found,Not found,Not found,Not found,Not found,IP Not found,Not found
KR,South Korea,,,37.5112,126.97409999999999,1.236.16.124,
